{
"type": "FeatureCollection",
"name": "bahia_macro",
"crs": { "type": "name", "properties": { "name": "urn:ogc:def:crs:OGC:1.3:CRS84" } },
"features": [
{ "type": "Feature", "properties": { "cod_macro": "2910", "nome": "SUL (NBS - ILHEUS)" }, "geometry": { "type": "MultiPolygon", "coordinates": [ [ [ [ -39.7659965, -15.3670814999999 ], [ -39.7885115999999, -15.374605599999899 ], [ -39.809605, -15.3254128999999 ], [ -39.8476861, -15.3110427 ], [ -39.8955758, -15.054201 ], [ -39.9132172, -15.0384984 ], [ -39.8625504, -14.9783241 ], [ -39.8817471, -14.8661003 ], [ -39.869123, -14.7918692 ], [ -39.8318894, -14.7758170999999 ], [ -39.822045, -14.7474536999999 ], [ -39.781703799999903, -14.7447003 ], [ -39.784987, -14.7303155999999 ], [ -39.7494103, -14.743323599999901 ], [ -39.7564232, -14.7010921999999 ], [ -39.7156404999999, -14.5785681999999 ], [ -39.735354899999898, -14.555289 ], [ -39.7330797, -14.5163848 ], [ -39.6965705, -14.3695789 ], [ -39.7423133, -14.3716598999999 ], [ -39.7414936, -14.3475276 ], [ -39.7639336, -14.359483 ], [ -39.7901191, -14.3506164999999 ], [ -39.832527, -14.3944273999999 ], [ -39.837395199999897, -14.4432977 ], [ -39.857461999999899, -14.451582899999901 ], [ -39.8726761, -14.432910999999899 ], [ -39.9019324, -14.4353771 ], [ -39.9189971, -14.4684396 ], [ -39.9440102, -14.4795548 ], [ -39.9545552, -14.466832 ], [ -40.0105245, -14.5314576 ], [ -40.0497417, -14.5270351 ], [ -40.059263299999898, -14.539807999999899 ], [ -40.1054397, -14.5202702 ], [ -40.119474, -14.4895634 ], [ -40.182296699999903, -14.4801615 ], [ -40.2117225, -14.4507532 ], [ -40.288878899999901, -14.4425338 ], [ -40.3030926, -14.4241977 ], [ -40.425910299999899, -14.3833245 ], [ -40.5052221, -14.3376466 ], [ -40.4451109, -14.294312 ], [ -40.3920323, -14.2847158 ], [ -40.3879056, -14.2657427999999 ], [ -40.4655112, -14.2657174 ], [ -40.470478399999898, -14.2358872999999 ], [ -40.492190299999898, -14.2255752999999 ], [ -40.4887742, -14.202135 ], [ -40.575556499999898, -14.1798562 ], [ -40.651362499999898, -14.1399741999999 ], [ -40.678730899999898, -14.1456656 ], [ -40.6873509, -14.119051699999901 ], [ -40.869073399999898, -14.031416799999899 ], [ -40.880166899999899, -13.9890591 ], [ -40.9302878, -13.9828765 ], [ -40.9447127, -13.9585617 ], [ -40.9497679, -13.9063087 ], [ -40.9115843, -13.9138659 ], [ -40.936354799999897, -13.894969999999899 ], [ -40.9056676, -13.8861193 ], [ -40.879414499999903, -13.8438864 ], [ -40.730073699999899, -13.828451 ], [ -40.7147626, -13.8410392 ], [ -40.8584241, -13.5825172999999 ], [ -40.9401966, -13.567788499999899 ], [ -40.9553367, -13.5454731 ], [ -41.038244, -13.5563326 ], [ -41.220381599999897, -13.470240299999899 ], [ -41.2274571, -13.5206092 ], [ -41.258305699999902, -13.473622599999899 ], [ -41.236756399999898, -13.461169 ], [ -41.2303441, -13.426807799999899 ], [ -41.160614699999897, -13.4032812 ], [ -41.1269804, -13.3330341 ], [ -41.1170501, -13.3401668999999 ], [ -41.1047783, -13.318897499999901 ], [ -41.1055903, -13.2930623 ], [ -41.0786884, -13.2732680999999 ], [ -41.088844, -13.2557983999999 ], [ -41.0103442, -13.2609103 ], [ -40.9183297, -13.2295695999999 ], [ -40.8710919, -13.2761791999999 ], [ -40.861954, -13.318745799999901 ], [ -40.8011372, -13.3337645 ], [ -40.783592499999898, -13.367453399999899 ], [ -40.7244461, -13.2766851 ], [ -40.71973, -13.2390414999999 ], [ -40.6272584, -13.1825742 ], [ -40.584796, -13.2153256 ], [ -40.511490299999899, -13.1764820999999 ], [ -40.46866, -13.1129505 ], [ -40.409569599999898, -13.0873352999999 ], [ -40.4010036, -13.066262799999899 ], [ -40.3299196, -13.0912614 ], [ -40.3459412999999, -13.062547 ], [ -40.3211444, -13.040358399999899 ], [ -40.1991753, -13.048685 ], [ -40.144015099999898, -12.9823024999999 ], [ -40.0654392, -12.9927183999999 ], [ -40.0111517, -12.9757796 ], [ -39.9917297, -12.9646663 ], [ -39.9881075, -12.9306306 ], [ -39.8998045, -12.874644499999899 ], [ -39.898421299999903, -12.9353621 ], [ -39.806179299999897, -12.9777293 ], [ -39.7672469, -13.047704699999899 ], [ -39.700386599999902, -13.115256299999899 ], [ -39.698776, -13.129657 ], [ -39.7387126, -13.118614099999901 ], [ -39.757689399999897, -13.131083 ], [ -39.7432193, -13.1918944 ], [ -39.7661084, -13.1789074 ], [ -39.8384649, -13.1903606 ], [ -39.806084999999896, -13.2321128 ], [ -39.759594799999903, -13.2487891 ], [ -39.7269297, -13.3256871999999 ], [ -39.7395488, -13.3402967 ], [ -39.727054, -13.369907199999901 ], [ -39.7473047, -13.375193099999899 ], [ -39.7420862, -13.4130858 ], [ -39.723086899999899, -13.4133681 ], [ -39.7106026, -13.456106299999901 ], [ -39.7294353, -13.4895189 ], [ -39.65012, -13.5500375999999 ], [ -39.4995001999999, -13.5858016 ], [ -39.471946, -13.6154579 ], [ -39.4283482, -13.593847599999901 ], [ -39.392763, -13.6229557999999 ], [ -39.3985782, -13.6428735 ], [ -39.354643199999899, -13.6682036 ], [ -39.3458424, -13.5388743999999 ], [ -39.302859899999902, -13.4853383999999 ], [ -39.3246399, -13.4392961 ], [ -39.2958886, -13.3767495 ], [ -39.3452789, -13.3716721 ], [ -39.3613184, -13.3558816999999 ], [ -39.3520662, -13.3380577999999 ], [ -39.3862996, -13.343257999999899 ], [ -39.410772, -13.3270492 ], [ -39.4280184, -13.330352699999899 ], [ -39.4517271, -13.3722106 ], [ -39.479977399999903, -13.3369284 ], [ -39.4675857, -13.3295322 ], [ -39.4762056, -13.2955919 ], [ -39.4288253, -13.2982458 ], [ -39.438537799999899, -13.2369874999999 ], [ -39.416775399999899, -13.2427026 ], [ -39.4039855, -13.228388299999899 ], [ -39.3491361, -13.252919599999901 ], [ -39.336684299999902, -13.1989328 ], [ -39.2986284999999, -13.2172942 ], [ -39.2688506, -13.263929399999901 ], [ -39.2103988, -13.2954242 ], [ -39.219352199999904, -13.2398332 ], [ -39.2070825, -13.2224395 ], [ -39.182972999999897, -13.2406314999999 ], [ -39.143465999999897, -13.224004 ], [ -39.115072499999897, -13.2535047 ], [ -39.0707186, -13.2596737 ], [ -39.0752491, -13.2437694 ], [ -39.026651, -13.244997199999901 ], [ -39.007956799999903, -13.2259802 ], [ -38.9899449, -13.2547853 ], [ -38.957377199999897, -13.2156932 ], [ -38.9190298, -13.213052 ], [ -38.9564468, -13.263532199999901 ], [ -38.96705, -13.3414182 ], [ -38.9462404, -13.3989233 ], [ -38.909348, -13.3791297 ], [ -38.8912025, -13.455030599999899 ], [ -38.9161799, -13.4766045 ], [ -38.9335033, -13.5554351 ], [ -38.901750799999903, -13.5997897 ], [ -38.8917339, -13.653908999999899 ], [ -38.914738499999899, -13.6758007999999 ], [ -38.9287308, -13.6575308999999 ], [ -38.9714688, -13.672084499999899 ], [ -38.962592899999898, -13.6863546 ], [ -38.998318599999898, -13.7521176 ], [ -38.995245899999901, -13.802005999999899 ], [ -38.9363273, -13.8866914 ], [ -38.9276929, -13.9398459 ], [ -38.9892396, -14.195647699999901 ], [ -38.9949362, -14.266368 ], [ -38.979914699999902, -14.2936579 ], [ -39.0148945, -14.4046322 ], [ -39.0652734, -14.6828930999999 ], [ -39.0553424, -14.7760266999999 ], [ -39.0274155, -14.783006 ], [ -39.018706699999903, -14.9201762 ], [ -38.997590499999902, -14.9867163 ], [ -38.993062, -15.2941552999999 ], [ -38.946725399999899, -15.4983429 ], [ -38.938218199999902, -15.6447600999999 ], [ -38.893608099999902, -15.7666808999999 ], [ -39.106525807, -15.787095212999899 ], [ -39.094577399999899, -15.813756605 ], [ -39.110176585, -15.8255283999999 ], [ -39.1399733, -15.799014199999901 ], [ -39.174193199999898, -15.8097938 ], [ -39.213086299999901, -15.788245199999899 ], [ -39.222012999999897, -15.8034997 ], [ -39.2472193, -15.8041102 ], [ -39.270397499999902, -15.8433509 ], [ -39.2812924999999, -15.8299797 ], [ -39.2871643, -15.8437023 ], [ -39.3474355, -15.8503767 ], [ -39.3722915, -15.8224102 ], [ -39.3869434, -15.8249337 ], [ -39.399093999999899, -15.7941574 ], [ -39.426943999999899, -15.8033138 ], [ -39.4357909, -15.792515799999901 ], [ -39.4849799, -15.8391913 ], [ -39.489391699999899, -15.8201634 ], [ -39.572595099999901, -15.7945697 ], [ -39.5485787, -15.7912876 ], [ -39.5688683, -15.766306299999901 ], [ -39.5366347, -15.7518926999999 ], [ -39.530914, -15.730536399999901 ], [ -39.543351099999903, -15.6433958 ], [ -39.525171999999898, -15.6144325 ], [ -39.5829381, -15.5926863999999 ], [ -39.632741399999901, -15.6193433 ], [ -39.652157799999898, -15.590773899999901 ], [ -39.6717702, -15.6043968 ], [ -39.6740475, -15.6368674 ], [ -39.6886653, -15.6370125 ], [ -39.6830527, -15.6178305 ], [ -39.7141166, -15.591279 ], [ -39.718240599999902, -15.5567669 ], [ -39.772561499999902, -15.5664462999999 ], [ -39.7919711, -15.541378 ], [ -39.8339285, -15.5258974999999 ], [ -39.8419453, -15.4824126999999 ], [ -39.792276, -15.427181 ], [ -39.7659965, -15.3670814999999 ] ] ], [ [ [ -38.9987479, -14.9787036 ], [ -38.9978819, -14.9800918 ], [ -38.9986974, -14.9810218 ], [ -38.9987479, -14.9787036 ] ] ], [ [ [ -39.014946199999898, -14.790758299999901 ], [ -39.014698699999897, -14.7897766 ], [ -39.014081299999901, -14.7900953 ], [ -39.014946199999898, -14.790758299999901 ] ] ], [ [ [ -39.0155635, -14.7713383 ], [ -39.015464699999903, -14.7715741 ], [ -39.0155808, -14.7716358 ], [ -39.0155635, -14.7713383 ] ] ], [ [ [ -39.0160786, -14.7706843 ], [ -39.0152242, -14.7707248999999 ], [ -39.015342, -14.7710627 ], [ -39.0160786, -14.7706843 ] ] ], [ [ [ -39.017449199999902, -14.7707912999999 ], [ -39.0179127, -14.7693776999999 ], [ -39.0172264, -14.768788599999899 ], [ -39.017449199999902, -14.7707912999999 ] ] ], [ [ [ -38.939314599999904, -13.8390363999999 ], [ -38.938075599999898, -13.8358878999999 ], [ -38.9380078, -13.8387485 ], [ -38.939314599999904, -13.8390363999999 ] ] ], [ [ [ -38.964567799999898, -13.677265299999901 ], [ -38.9635287, -13.6758141999999 ], [ -38.9638955, -13.6773484 ], [ -38.964567799999898, -13.677265299999901 ] ] ], [ [ [ -38.9470848, -13.3855404999999 ], [ -38.946223099999898, -13.3864477999999 ], [ -38.9476414, -13.386673299999901 ], [ -38.9470848, -13.3855404999999 ] ] ], [ [ [ -38.9045341, -13.3794172 ], [ -38.9034789, -13.3796847999999 ], [ -38.9038113, -13.3807783 ], [ -38.9045341, -13.3794172 ] ] ] ] } },
{ "type": "Feature", "properties": { "cod_macro": "2911", "nome": "SUDOESTE (NBS - VITORIA CONQUISTA)" }, "geometry": { "type": "Polygon", "coordinates": [ [ [ -42.261986, -15.1244210999999 ], [ -42.3335173, -15.0790527 ], [ -42.354907, -15.0982031 ], [ -42.3744704, -15.0713337 ], [ -42.4429392, -15.0613198 ], [ -42.4368004, -15.022716 ], [ -42.4759116, -15.0170403999999 ], [ -42.598968899999903, -14.9240978 ], [ -42.6264917, -14.9451462 ], [ -42.7041634999999, -14.8828283 ], [ -42.7233598, -14.8856124 ], [ -42.7551377999999, -14.846421399999899 ], [ -42.8202472, -14.8206286 ], [ -42.8684388, -14.7670252 ], [ -42.927053, -14.744140199999901 ], [ -42.9388802, -14.7080296 ], [ -43.010947299999899, -14.7016621999999 ], [ -43.036668, -14.6830608999999 ], [ -43.068077, -14.6809514 ], [ -43.083936499999901, -14.6982725999999 ], [ -43.103977, -14.6739370999999 ], [ -43.196201899999899, -14.6495333 ], [ -43.2883244, -14.6761124 ], [ -43.3112274, -14.6697480999999 ], [ -43.3465037, -14.6960690999999 ], [ -43.434888999999899, -14.723038299999899 ], [ -43.462838599999898, -14.7658865 ], [ -43.481254299999897, -14.767897699999899 ], [ -43.469698299999898, -14.7873485 ], [ -43.531391799999902, -14.8152992 ], [ -43.537174, -14.7835076 ], [ -43.580616399999897, -14.7508139 ], [ -43.6112477, -14.7605487 ], [ -43.687173399999899, -14.7214074999999 ], [ -43.7198617, -14.7295389 ], [ -43.7232875999999, -14.699531599999901 ], [ -43.859201, -14.6742988 ], [ -43.8835076, -14.6532321999999 ], [ -43.8700638, -14.6128275999999 ], [ -43.8872301, -14.5851792 ], [ -43.873877299999897, -14.5205836 ], [ -43.783186699999902, -14.3392337 ], [ -43.8223149, -14.3230296999999 ], [ -43.819004499999899, -14.3122074999999 ], [ -43.8472267, -14.321737299999899 ], [ -43.8527036999999, -14.3079362999999 ], [ -43.8895889, -14.3075494 ], [ -43.889370799999902, -14.2985158999999 ], [ -43.892870199999898, -14.293191 ], [ -43.9421399, -14.3050964999999 ], [ -43.997649599999903, -14.2654044 ], [ -44.034621, -14.2890283999999 ], [ -44.0733986, -14.2856656 ], [ -44.074451199999899, -14.2706396 ], [ -44.088286799999899, -14.2780763 ], [ -44.1125944, -14.2587283 ], [ -44.135617, -14.2821853999999 ], [ -44.1372648, -14.2641513999999 ], [ -44.1703803, -14.268695 ], [ -44.2153326, -14.233180699999901 ], [ -44.218059, -14.244980199999899 ], [ -44.240619799999898, -14.2406872999999 ], [ -44.23984609, -14.258876495 ], [ -44.316483194999897, -14.240349089999899 ], [ -44.36158871, -14.2728125899999 ], [ -44.427695884999899, -14.2802999049999 ], [ -44.44886258, -14.22577032 ], [ -44.4686665199999, -14.2167872099999 ], [ -44.461683719999897, -14.19445038 ], [ -44.44007498, -14.1884763899999 ], [ -44.438066799999902, -14.1626222049999 ], [ -44.45342291, -14.1559597949999 ], [ -44.41956291, -14.11955369 ], [ -44.426406395, -14.08164219 ], [ -44.3908006, -14.0756425 ], [ -44.3795835, -14.0444767 ], [ -44.2771251, -14.0314786 ], [ -44.231606199999902, -13.94267 ], [ -44.193834299999899, -13.9266456 ], [ -44.187955, -13.944274499999899 ], [ -44.154849, -13.9497026 ], [ -44.107251, -13.985091 ], [ -44.110670099999901, -13.9481344 ], [ -44.0852813, -13.9050182 ], [ -44.085487999999899, -13.9388693 ], [ -44.058152699999901, -13.9475424999999 ], [ -44.0674365, -13.928480599999901 ], [ -44.052484, -13.930849599999901 ], [ -44.055685, -13.916277099999901 ], [ -44.030719, -13.8984647 ], [ -44.0730207, -13.869793699999899 ], [ -44.0482059, -13.8663761999999 ], [ -44.031766699999899, -13.8890018 ], [ -44.0279659, -13.8557026 ], [ -44.0034239, -13.8429922 ], [ -44.0052711, -13.829124799999899 ], [ -44.0270935, -13.8348698 ], [ -44.0165516, -13.8258541 ], [ -44.0292568, -13.7926664999999 ], [ -44.011597, -13.8199377 ], [ -43.9903944, -13.8155573 ], [ -43.9845293, -13.8409867 ], [ -43.9618876, -13.8342746 ], [ -43.9491489, -13.8207934 ], [ -43.957192899999903, -13.7872487 ], [ -43.923386, -13.8054007 ], [ -43.899916, -13.7960813 ], [ -43.9123211, -13.767003 ], [ -43.901781899999897, -13.772647699999901 ], [ -43.892799899999901, -13.7529235 ], [ -43.881617999999897, -13.761917599999901 ], [ -43.877151, -13.742179 ], [ -43.8401402, -13.7591466 ], [ -43.8145749, -13.7338068999999 ], [ -43.8142897, -13.7083541 ], [ -43.586623099999898, -13.8062892999999 ], [ -43.592612899999899, -13.763275599999901 ], [ -43.5483541, -13.7122176 ], [ -43.5567568, -13.644507 ], [ -43.5239601, -13.5869235 ], [ -43.4671355, -13.5671341999999 ], [ -43.4502959, -13.5424378 ], [ -43.442618099999898, -13.5593254 ], [ -43.4761389, -13.626234199999899 ], [ -43.4993335999999, -13.7333522 ], [ -43.545193299999902, -13.7939263 ], [ -43.5167069, -13.7928774 ], [ -43.511154599999898, -13.8153394 ], [ -43.4801846, -13.8321000999999 ], [ -43.4825058, -13.850452599999899 ], [ -43.4394639, -13.8761721999999 ], [ -43.2413235, -13.6103942 ], [ -43.1876611, -13.5190127 ], [ -43.163065, -13.4415306 ], [ -43.1294308, -13.4275962999999 ], [ -43.1165179, -13.3239091999999 ], [ -42.960061499999902, -13.3340575 ], [ -42.947546799999898, -13.290522399999899 ], [ -42.912554999999898, -13.2950885999999 ], [ -42.9229556, -13.1834365 ], [ -42.9035587, -13.159324 ], [ -42.9260191, -13.1293185 ], [ -42.935356199999902, -13.0772411 ], [ -42.974378199999897, -13.0275576999999 ], [ -42.980686499999898, -12.9710082999999 ], [ -42.8912978, -12.8892840999999 ], [ -42.878582, -12.724606199999901 ], [ -42.8886259, -12.541645399999901 ], [ -42.8253979, -12.5697954999999 ], [ -42.6392536, -12.5008008999999 ], [ -42.655747899999902, -12.5194159 ], [ -42.6383468, -12.5938236 ], [ -42.605224, -12.658193599999899 ], [ -42.5819208, -12.664150999999899 ], [ -42.581093, -12.6911516 ], [ -42.5286861, -12.6911830999999 ], [ -42.5032222, -12.7170401999999 ], [ -42.4505194, -12.6870605 ], [ -42.353543699999904, -12.716955299999899 ], [ -42.2764984, -12.711607 ], [ -42.212089299999903, -12.921746299999899 ], [ -42.170105, -12.9523487 ], [ -42.1606801, -13.002450399999899 ], [ -42.1124116, -13.0322423 ], [ -42.10365631, -13.132727209999899 ], [ -42.05915, -13.1814079 ], [ -42.014857999999897, -13.1888387 ], [ -41.985768999999898, -13.234203 ], [ -41.9132379, -13.2632583999999 ], [ -41.909136299999901, -13.3114484 ], [ -41.8694866, -13.345968 ], [ -41.871480399999903, -13.3629233999999 ], [ -41.7955329, -13.4238918 ], [ -41.7914355, -13.3731033 ], [ -41.746422799999898, -13.3246862999999 ], [ -41.707669399999901, -13.3698562 ], [ -41.6718776, -13.352994399999901 ], [ -41.676764999999897, -13.3651743 ], [ -41.6172217, -13.426872499999901 ], [ -41.5524821, -13.4092755999999 ], [ -41.5474078, -13.425871599999899 ], [ -41.4458799, -13.383578199999899 ], [ -41.437023199999899, -13.3288305 ], [ -41.4539847, -13.2630778999999 ], [ -41.399268499999899, -13.2244259 ], [ -41.3827428, -13.2711884999999 ], [ -41.290571499999899, -13.3224723 ], [ -41.1851025, -13.2299512 ], [ -41.1432174, -13.2990374 ], [ -41.1059122999999, -13.2935745 ], [ -41.1047783, -13.318897499999901 ], [ -41.1170501, -13.3401668999999 ], [ -41.1269804, -13.3330341 ], [ -41.1608585, -13.4035031999999 ], [ -41.233078, -13.4289568 ], [ -41.236756399999898, -13.461169 ], [ -41.258305699999902, -13.473622599999899 ], [ -41.241173199999899, -13.505925 ], [ -41.223706, -13.5185370999999 ], [ -41.220381599999897, -13.470240299999899 ], [ -41.038244, -13.5563326 ], [ -40.9553367, -13.5454731 ], [ -40.9401966, -13.567788499999899 ], [ -40.8584241, -13.5825172999999 ], [ -40.7147626, -13.8410392 ], [ -40.730444599999899, -13.828458399999899 ], [ -40.880887099999903, -13.844697199999899 ], [ -40.9056676, -13.8861193 ], [ -40.936354799999897, -13.894969999999899 ], [ -40.9115843, -13.9138659 ], [ -40.9497679, -13.9063087 ], [ -40.9316793, -13.981528399999901 ], [ -40.886471599999901, -13.9840067 ], [ -40.869073399999898, -14.031416799999899 ], [ -40.6873509, -14.119051699999901 ], [ -40.678730899999898, -14.1456656 ], [ -40.651362499999898, -14.1399741999999 ], [ -40.575556499999898, -14.1798562 ], [ -40.4887742, -14.202135 ], [ -40.492190299999898, -14.2255752999999 ], [ -40.470478399999898, -14.2358872999999 ], [ -40.4655112, -14.2657174 ], [ -40.3879056, -14.2657427999999 ], [ -40.3920323, -14.2847158 ], [ -40.4451109, -14.294312 ], [ -40.5052221, -14.3376466 ], [ -40.425910299999899, -14.3833245 ], [ -40.3030926, -14.4241977 ], [ -40.288878899999901, -14.4425338 ], [ -40.2117225, -14.4507532 ], [ -40.182296699999903, -14.4801615 ], [ -40.119474, -14.4895634 ], [ -40.1054397, -14.5202702 ], [ -40.059263299999898, -14.539807999999899 ], [ -40.0497417, -14.5270351 ], [ -40.0105245, -14.5314576 ], [ -39.9545552, -14.466832 ], [ -39.9440102, -14.4795548 ], [ -39.9189971, -14.4684396 ], [ -39.9019324, -14.4353771 ], [ -39.8726761, -14.432910999999899 ], [ -39.857461999999899, -14.451582899999901 ], [ -39.837395199999897, -14.4432977 ], [ -39.832527, -14.3944273999999 ], [ -39.7901191, -14.3506164999999 ], [ -39.7639336, -14.359483 ], [ -39.7414936, -14.3475276 ], [ -39.7423133, -14.3716598999999 ], [ -39.6965705, -14.3695789 ], [ -39.7330797, -14.5163848 ], [ -39.735354899999898, -14.555289 ], [ -39.7156404999999, -14.5785681999999 ], [ -39.7564232, -14.7010921999999 ], [ -39.7494103, -14.743323599999901 ], [ -39.784987, -14.7303155999999 ], [ -39.781703799999903, -14.7447003 ], [ -39.822045, -14.7474536999999 ], [ -39.8318894, -14.7758170999999 ], [ -39.869123, -14.7918692 ], [ -39.8817471, -14.8661003 ], [ -39.8625504, -14.9783241 ], [ -39.9132183, -15.0387524 ], [ -39.8955758, -15.054201 ], [ -39.8476861, -15.3110427 ], [ -39.809605, -15.3254128999999 ], [ -39.7885115999999, -15.374605599999899 ], [ -39.765824, -15.3669456 ], [ -39.792276, -15.427181 ], [ -39.8419453, -15.4824126999999 ], [ -39.8339285, -15.5258974999999 ], [ -39.7919711, -15.541378 ], [ -39.772561499999902, -15.5664462999999 ], [ -39.718240599999902, -15.5567669 ], [ -39.7141166, -15.591279 ], [ -39.6830527, -15.6178305 ], [ -39.6886653, -15.6370125 ], [ -39.6740475, -15.6368674 ], [ -39.6717702, -15.6043968 ], [ -39.652157799999898, -15.590773899999901 ], [ -39.632741399999901, -15.6193433 ], [ -39.5829381, -15.5926863999999 ], [ -39.525171999999898, -15.6144325 ], [ -39.543351099999903, -15.6433958 ], [ -39.530914, -15.730536399999901 ], [ -39.570297799999899, -15.775649 ], [ -39.6210267, -15.7739672 ], [ -39.6322018, -15.743395399999899 ], [ -39.6470158, -15.7416491 ], [ -39.7317409, -15.7779255999999 ], [ -39.7494685, -15.8017632999999 ], [ -39.7878481, -15.8122792 ], [ -39.789585, -15.833865 ], [ -39.8161463, -15.8462643 ], [ -39.814687799999902, -15.8657972 ], [ -39.8365156, -15.869630599999899 ], [ -39.8360863999999, -15.8842155999999 ], [ -39.859558, -15.873349099999899 ], [ -39.8866173, -15.8889798 ], [ -39.9109832, -15.8671251 ], [ -39.9295423, -15.884268899999901 ], [ -39.9471728, -15.8679741 ], [ -39.9491093, -15.8970886 ], [ -39.9090952, -15.946643499999899 ], [ -39.8709067, -15.952822399999899 ], [ -39.8433148, -15.9765811 ], [ -39.8655055, -15.996795899999899 ], [ -39.9557464, -15.9914282999999 ], [ -39.980264, -16.0055608 ], [ -40.0661947, -15.9602083 ], [ -40.0661332, -15.9397648 ], [ -40.0788302, -15.9409238 ], [ -40.0657169, -15.910828 ], [ -40.0809078, -15.9240976999999 ], [ -40.0849966, -15.8971205999999 ], [ -40.1102162, -15.91258 ], [ -40.175403399999901, -15.903991699999899 ], [ -40.1661041999999, -15.8683771999999 ], [ -40.200074, -15.8625097999999 ], [ -40.2311113, -15.803847099999899 ], [ -40.3768603, -15.823522599999899 ], [ -40.425033799999902, -15.8057084 ], [ -40.4614286, -15.7532317 ], [ -40.4809394, -15.7751886 ], [ -40.5095395, -15.7683812999999 ], [ -40.518281199999898, -15.7975104 ], [ -40.5625094, -15.8032636 ], [ -40.5674174, -15.775923099999901 ], [ -40.5930999, -15.7717466999999 ], [ -40.6066016, -15.7367563999999 ], [ -40.6293886999999, -15.7157126999999 ], [ -40.6449466, -15.7288594 ], [ -40.704575799999901, -15.6663988 ], [ -40.7413622, -15.6802506 ], [ -40.7398608, -15.7036467 ], [ -40.7676637, -15.7140793999999 ], [ -40.7832849, -15.7013751 ], [ -40.780337099999898, -15.680198 ], [ -40.8190283, -15.646341999999899 ], [ -40.842033199999896, -15.6832246 ], [ -40.8815569, -15.6944708 ], [ -40.9025697, -15.6918421 ], [ -40.914331699999899, -15.6609776 ], [ -40.961614499999897, -15.6479315 ], [ -41.0060594999999, -15.7138373 ], [ -41.077557899999903, -15.719287999999899 ], [ -41.1286349, -15.746769599999899 ], [ -41.1425302, -15.772046999999899 ], [ -41.2153964, -15.7371659 ], [ -41.3312061, -15.7446734 ], [ -41.356422699999897, -15.5002861 ], [ -41.800710099999897, -15.101097099999899 ], [ -41.8704306, -15.1151801 ], [ -41.9325365, -15.1745017 ], [ -41.9975031, -15.15889 ], [ -42.0865673, -15.1870688 ], [ -42.173319799999902, -15.085954 ], [ -42.261986, -15.1244210999999 ] ] ] } },
{ "type": "Feature", "properties": { "cod_macro": "2912", "nome": "OESTE (NBS - BARREIRAS)" }, "geometry": { "type": "Polygon", "coordinates": [ [ [ -46.120758099999897, -15.1975017 ], [ -46.0504157, -15.167681199999899 ], [ -46.043720199999903, -15.1181296 ], [ -45.9750056, -15.0368778 ], [ -45.9717481, -14.949123 ], [ -46.007313399999902, -14.9258421 ], [ -46.00388, -14.902289799999901 ], [ -46.039378499999899, -14.8752514999999 ], [ -46.0252869, -14.855756499999901 ], [ -46.0411979, -14.826494599999901 ], [ -46.0186719, -14.818549699999901 ], [ -45.998753, -14.7708142999999 ], [ -46.0055037, -14.688998 ], [ -46.0279691, -14.6810075 ], [ -45.989515, -14.658845 ], [ -45.9843987, -14.6218787 ], [ -45.9978884, -14.6035777 ], [ -45.975308299999902, -14.538929799999901 ], [ -46.0001362, -14.5227422999999 ], [ -45.996085, -14.488406 ], [ -46.0190031, -14.4720712 ], [ -46.0000734, -14.4466222 ], [ -46.0101837, -14.425695699999901 ], [ -45.9758064, -14.434248 ], [ -45.9326429, -14.4098592999999 ], [ -45.9071552999999, -14.3551897999999 ], [ -45.9422145999999, -14.343255 ], [ -45.962556499999899, -14.2860365 ], [ -45.9975623, -14.2777558 ], [ -45.9954281, -14.2561577 ], [ -46.026408499999903, -14.260908299999899 ], [ -46.052936499999902, -14.244791 ], [ -46.0610483, -14.195484599999901 ], [ -46.1018829, -14.2083183 ], [ -46.1006896, -14.191508699999901 ], [ -46.1226647, -14.1906021 ], [ -46.1181409, -14.1599492999999 ], [ -46.185992499999898, -14.155591699999899 ], [ -46.2243922, -14.1050276 ], [ -46.2307248, -14.0595236999999 ], [ -46.2081517, -14.016136199999901 ], [ -46.2242605, -14.0036071 ], [ -46.220066, -13.975422799999899 ], [ -46.2530267, -13.9695326 ], [ -46.264190299999903, -13.9474351 ], [ -46.2621164, -13.8893179 ], [ -46.2324747, -13.848607399999899 ], [ -46.273631, -13.828779699999901 ], [ -46.2639037, -13.807395799999901 ], [ -46.281495499999899, -13.7951095 ], [ -46.2229368, -13.7654029 ], [ -46.2628572, -13.7348173 ], [ -46.2356033, -13.709850199999901 ], [ -46.2406728, -13.694429199999901 ], [ -46.263632899999898, -13.691393 ], [ -46.2376411, -13.652126399999901 ], [ -46.162745399999899, -13.603642099999901 ], [ -46.1872551, -13.5754193 ], [ -46.2474525, -13.578660399999899 ], [ -46.2370437, -13.5549088 ], [ -46.2472571, -13.5216887 ], [ -46.2252276, -13.5030293 ], [ -46.2370637, -13.4871504 ], [ -46.2089639, -13.465562799999899 ], [ -46.2495225, -13.4313089 ], [ -46.1354731, -13.3755242 ], [ -46.0682755, -13.2954417999999 ], [ -46.103219399999901, -13.2575102 ], [ -46.2924869, -13.3169301 ], [ -46.317901999999897, -13.3052278 ], [ -46.2999257, -13.2576773 ], [ -46.3291318, -13.2484863999999 ], [ -46.3043483, -13.2059795 ], [ -46.3029804, -13.186404799999901 ], [ -46.3167108, -13.183260899999899 ], [ -46.2951808, -13.1418745 ], [ -46.335788799999897, -13.0976578999999 ], [ -46.3010985, -13.0743117 ], [ -46.275533799999899, -13.0202133 ], [ -46.1246636, -12.9598204 ], [ -46.104644, -12.9249255 ], [ -46.126647499999898, -12.9123867 ], [ -46.2055999, -12.950677599999899 ], [ -46.265437, -12.9387891 ], [ -46.3300763, -12.9578516999999 ], [ -46.3059744, -12.9390733 ], [ -46.3127132, -12.9112914999999 ], [ -46.2870007, -12.8934265 ], [ -46.3050221, -12.8687424999999 ], [ -46.2735162, -12.8315514999999 ], [ -46.2791435, -12.8114029 ], [ -46.3004892, -12.811556499999901 ], [ -46.2915915, -12.7962977999999 ], [ -46.3120784, -12.798209799999899 ], [ -46.2818857, -12.7708507999999 ], [ -46.295882199999902, -12.744723 ], [ -46.2737155, -12.7388185 ], [ -46.268080499999897, -12.7161568 ], [ -46.3040783, -12.7149421999999 ], [ -46.2917518, -12.6990744 ], [ -46.3057156, -12.6885262 ], [ -46.2639272, -12.6582931 ], [ -46.2763752, -12.6410284999999 ], [ -46.310404199999901, -12.642678 ], [ -46.2757846, -12.5944306 ], [ -46.290524199999901, -12.5827004999999 ], [ -46.302945599999902, -12.581669 ], [ -46.3072830999999, -12.5781301 ], [ -46.3075674, -12.5767478 ], [ -46.2976461, -12.563339 ], [ -46.293541699999899, -12.5790284 ], [ -46.2716121, -12.5700454 ], [ -46.272913399999901, -12.55026 ], [ -46.1982171, -12.5039565 ], [ -46.2726244999999, -12.5145984 ], [ -46.2609987, -12.4738502 ], [ -46.2802743, -12.4597191 ], [ -46.2698581, -12.4305115999999 ], [ -46.282095399999903, -12.4159878 ], [ -46.2853454, -12.4321699 ], [ -46.304953, -12.416946 ], [ -46.3155489, -12.463430399999901 ], [ -46.3405437, -12.4522984999999 ], [ -46.329823099999899, -12.4351477 ], [ -46.3403618, -12.4144423 ], [ -46.3273316, -12.4191311 ], [ -46.289883599999897, -12.376653 ], [ -46.3133862, -12.357195 ], [ -46.3630939, -12.367081599999899 ], [ -46.339823099999897, -12.3514974 ], [ -46.377415799999902, -12.352775 ], [ -46.344533199999901, -12.3028201 ], [ -46.384843299999901, -12.2967184999999 ], [ -46.369568699999903, -12.2674681999999 ], [ -46.3880217, -12.2446073999999 ], [ -46.3650056, -12.2170202999999 ], [ -46.3834216, -12.2126031 ], [ -46.377406199999903, -12.1965471 ], [ -46.4102142, -12.1986343999999 ], [ -46.3810937, -12.1810752 ], [ -46.4064905, -12.1570139 ], [ -46.3886491, -12.1563416 ], [ -46.3715438, -12.1232290999999 ], [ -46.3711652, -12.099719299999901 ], [ -46.3985913, -12.0914433999999 ], [ -46.382640799999898, -12.0839535 ], [ -46.396014299999898, -12.061575199999901 ], [ -46.3844223, -12.0517563 ], [ -46.479799699999901, -12.0473590999999 ], [ -46.4227903, -12.029747299999899 ], [ -46.4082595, -12.0095737 ], [ -46.400236199999902, -12.024813 ], [ -46.387179699999898, -11.9972723 ], [ -46.3154903, -11.941993 ], [ -46.233057599999903, -11.9364818 ], [ -46.1800398, -11.9070912 ], [ -46.2822315, -11.9182013 ], [ -46.3254314, -11.9090391 ], [ -46.3530272, -11.884319199999901 ], [ -46.370658299999903, -11.8895899 ], [ -46.3811345, -11.8376923 ], [ -46.350563099999903, -11.8373755 ], [ -46.3586554, -11.812503499999901 ], [ -46.337911, -11.814101 ], [ -46.3484915, -11.7858466 ], [ -46.3280101, -11.7713735 ], [ -46.3609362, -11.7789513 ], [ -46.3436773, -11.7600874999999 ], [ -46.3751048, -11.7685987999999 ], [ -46.3785453, -11.7485209 ], [ -46.3366922, -11.739567099999899 ], [ -46.3217632, -11.7134712 ], [ -46.3335417, -11.7102087 ], [ -46.3077347, -11.686440699999901 ], [ -46.338462299999897, -11.6718921 ], [ -46.340194499999903, -11.6395843 ], [ -46.3956970999999, -11.6425275 ], [ -46.3848704, -11.6252044 ], [ -46.3456447, -11.6192057 ], [ -46.3255783, -11.5995809 ], [ -46.286787499999903, -11.6158247 ], [ -46.2443367, -11.6052281999999 ], [ -46.2246953, -11.6396880999999 ], [ -46.157217699999897, -11.651496199999899 ], [ -46.1444858, -11.6243474 ], [ -46.080894199999904, -11.624011199999901 ], [ -46.209346299999901, -11.5853506999999 ], [ -46.250481299999898, -11.536689 ], [ -46.3481413, -11.5066007 ], [ -46.440434599999897, -11.520789 ], [ -46.524051313, -11.4636319869999 ], [ -46.532021299999897, -11.37466567 ], [ -46.5772846099999, -11.360012289999901 ], [ -46.552202899999898, -11.262799 ], [ -46.341557899999898, -10.9390122999999 ], [ -46.2672663, -10.9348022999999 ], [ -46.260537, -10.8120374 ], [ -46.2264451, -10.7829371 ], [ -46.206199, -10.800466599999901 ], [ -46.195921999999896, -10.745224 ], [ -46.1503463, -10.691554 ], [ -46.1607629, -10.659439 ], [ -46.1497049, -10.6359108 ], [ -45.8708973, -10.5032788999999 ], [ -45.8212513, -10.458074 ], [ -45.7981846, -10.323247299999901 ], [ -45.7268895999999, -10.3125357 ], [ -45.699576099999902, -10.2596862 ], [ -45.7019773, -10.1793504 ], [ -45.723484799999902, -10.1554131999999 ], [ -45.6847195, -10.1533155999999 ], [ -45.6031761, -10.1079822 ], [ -45.5674564, -10.139522499999901 ], [ -45.567310899999903, -10.2014844999999 ], [ -45.5261867, -10.2369275999999 ], [ -45.517327599999902, -10.286440599999899 ], [ -45.426579499999903, -10.366292499999901 ], [ -45.426744, -10.4206594 ], [ -45.395436899999901, -10.4480227 ], [ -45.4472562999999, -10.507423 ], [ -45.4373282, -10.6155663 ], [ -45.425356, -10.6388474 ], [ -45.377104099999897, -10.663117199999901 ], [ -45.358219, -10.7322075 ], [ -45.268465999999897, -10.7762298 ], [ -45.2480519, -10.821967399999901 ], [ -45.073235699999898, -10.8404226 ], [ -44.9312179, -10.9287563 ], [ -44.8596626, -10.883179299999901 ], [ -44.8442989, -10.9000328 ], [ -44.808329199999903, -10.866149499999899 ], [ -44.788061899999903, -10.808521599999899 ], [ -44.7589257, -10.8048461 ], [ -44.746086799999901, -10.7775803 ], [ -44.667684699999903, -10.760056599999899 ], [ -44.6666217, -10.6823421999999 ], [ -44.618476, -10.6710671 ], [ -44.5849044, -10.6293509 ], [ -44.5005052, -10.6497019 ], [ -44.456311099999901, -10.6080997 ], [ -44.398073699999898, -10.6058780999999 ], [ -44.3368429, -10.5485358 ], [ -44.306098899999903, -10.5655358 ], [ -44.2640198, -10.62467 ], [ -44.214096, -10.6144470999999 ], [ -44.165540099999902, -10.642901299999901 ], [ -44.139264, -10.639884299999901 ], [ -44.110621599999902, -10.597196 ], [ -44.072113699999903, -10.579927699999899 ], [ -44.051010399999903, -10.5062386 ], [ -44.025843699999903, -10.4754707 ], [ -44.0358667, -10.4354256 ], [ -44.023540399999902, -10.408200399999901 ], [ -43.9367348, -10.436130299999901 ], [ -43.916229299999898, -10.4267187 ], [ -43.9158894, -10.393084799999899 ], [ -43.7707923, -10.3930880999999 ], [ -43.7219956, -10.3546929 ], [ -43.663001699999903, -10.3759034999999 ], [ -43.6646802, -10.3239862 ], [ -43.5846286, -10.248231299999899 ], [ -43.2792555999999, -10.2369944 ], [ -42.619205, -10.5686436 ], [ -42.661309199999899, -10.5880185 ], [ -42.7030692, -10.7146802999999 ], [ -42.7688004, -10.8100378 ], [ -42.859601499999897, -10.808971799999901 ], [ -42.8755853, -10.8370909 ], [ -42.9205525, -10.847710699999899 ], [ -42.943416399999897, -10.881834 ], [ -42.988284099999902, -10.9083788 ], [ -42.9885131, -10.9397043 ], [ -43.0385072, -10.9684801 ], [ -43.051318799999898, -11.005773 ], [ -43.0952286, -11.0261652 ], [ -43.144893599999897, -11.1573099 ], [ -43.198554699999903, -11.2318433 ], [ -43.1725666, -11.320701799999901 ], [ -43.221486599999899, -11.3693511 ], [ -43.264495699999898, -11.4832987 ], [ -43.0567712, -11.5285294999999 ], [ -43.0549727, -11.560359 ], [ -43.0397247, -11.5554786 ], [ -42.9538289, -11.6243585999999 ], [ -42.934494599999901, -11.6286236 ], [ -42.9397887, -11.5860433 ], [ -42.9211017, -11.5789473 ], [ -42.8396372, -11.6217351999999 ], [ -42.7884096, -11.6904713 ], [ -42.742769399999901, -11.7054684 ], [ -42.7467146, -11.7311561 ], [ -42.594372, -11.7084788 ], [ -42.4876149, -11.7753728 ], [ -42.4721506, -11.7252346999999 ], [ -42.4191129, -11.7651351 ], [ -42.3912116, -11.7524698 ], [ -42.3686137, -11.760753099999899 ], [ -42.3600246, -11.713986799999899 ], [ -42.3436505, -11.7240416999999 ], [ -42.3017861, -11.7838017999999 ], [ -42.2914033, -11.8535575 ], [ -42.246607599999898, -11.9467799 ], [ -42.090208399999902, -12.1793307 ], [ -42.0889131, -12.2914953 ], [ -42.1130104, -12.3070278 ], [ -42.1241208, -12.2776792 ], [ -42.270249, -12.311076 ], [ -42.253789299999902, -12.4080617 ], [ -42.3051977, -12.4031969 ], [ -42.3256718, -12.4294451 ], [ -42.3298156, -12.4826237 ], [ -42.370027, -12.4580786 ], [ -42.370326, -12.4811895 ], [ -42.4255588, -12.4973350999999 ], [ -42.4920928, -12.544086499999899 ], [ -42.5329905, -12.5468202 ], [ -42.5793634999999, -12.528911 ], [ -42.5897408, -12.5096687 ], [ -42.6388962, -12.5007982999999 ], [ -42.8253979, -12.5697954999999 ], [ -42.8886259, -12.541645399999901 ], [ -42.878582, -12.724606199999901 ], [ -42.8912978, -12.8892840999999 ], [ -42.980686499999898, -12.9710082999999 ], [ -42.974378199999897, -13.0275576999999 ], [ -42.935356199999902, -13.0772411 ], [ -42.9260191, -13.1293185 ], [ -42.9035587, -13.159324 ], [ -42.9229556, -13.1834365 ], [ -42.912554999999898, -13.2950885999999 ], [ -42.947546799999898, -13.290522399999899 ], [ -42.960061499999902, -13.3340575 ], [ -43.1165179, -13.3239091999999 ], [ -43.1294308, -13.4275962999999 ], [ -43.163065, -13.4415306 ], [ -43.1876611, -13.5190127 ], [ -43.2413235, -13.6103942 ], [ -43.4394639, -13.8761721999999 ], [ -43.4825058, -13.850452599999899 ], [ -43.4801846, -13.8321000999999 ], [ -43.511154599999898, -13.8153394 ], [ -43.5167069, -13.7928774 ], [ -43.545193299999902, -13.7939263 ], [ -43.4993335999999, -13.7333522 ], [ -43.4454602, -13.5425326 ], [ -43.4671355, -13.5671341999999 ], [ -43.5185349, -13.5818551999999 ], [ -43.5567568, -13.644507 ], [ -43.5483541, -13.7122176 ], [ -43.592612899999899, -13.763275599999901 ], [ -43.586623099999898, -13.8062892999999 ], [ -43.8142897, -13.7083541 ], [ -43.8145749, -13.7338068999999 ], [ -43.8401402, -13.7591466 ], [ -43.877151, -13.742179 ], [ -43.881617999999897, -13.761917599999901 ], [ -43.892799899999901, -13.7529235 ], [ -43.901781899999897, -13.772647699999901 ], [ -43.9123211, -13.767003 ], [ -43.899916, -13.7960813 ], [ -43.923386, -13.8054007 ], [ -43.9425836, -13.7882438 ], [ -43.957192899999903, -13.7872487 ], [ -43.9491489, -13.8207934 ], [ -43.9618876, -13.8342746 ], [ -43.9845293, -13.8409867 ], [ -43.9903944, -13.8155573 ], [ -44.011597, -13.8199377 ], [ -44.0190274, -13.795957 ], [ -44.029640899999897, -13.7928482 ], [ -44.0165516, -13.8258541 ], [ -44.0270935, -13.8348698 ], [ -44.0052711, -13.829124799999899 ], [ -44.0036408, -13.8436758 ], [ -44.0279659, -13.8557026 ], [ -44.031766699999899, -13.8890018 ], [ -44.0482059, -13.8663761999999 ], [ -44.061780499999898, -13.8704304999999 ], [ -44.0659678, -13.8671135 ], [ -44.0730207, -13.869793699999899 ], [ -44.0294382, -13.907712199999899 ], [ -44.0555661, -13.9161248999999 ], [ -44.0522889, -13.930657499999899 ], [ -44.0588169, -13.924284 ], [ -44.067453199999903, -13.9285892 ], [ -44.0579195, -13.947309899999899 ], [ -44.0720547, -13.9502542 ], [ -44.085536299999902, -13.9386153 ], [ -44.0771496999999, -13.914599699999901 ], [ -44.0917706, -13.9078812 ], [ -44.1107949, -13.9486838 ], [ -44.107251, -13.985091 ], [ -44.197847099999898, -13.9266668 ], [ -44.231606199999902, -13.94267 ], [ -44.2771251, -14.0314786 ], [ -44.3795835, -14.0444767 ], [ -44.3908006, -14.0756425 ], [ -44.426406395, -14.08164219 ], [ -44.41956291, -14.11955369 ], [ -44.45342291, -14.1559597949999 ], [ -44.438066799999902, -14.1626222049999 ], [ -44.44007498, -14.1884763899999 ], [ -44.461683719999897, -14.19445038 ], [ -44.4687377, -14.21636008 ], [ -44.44886258, -14.22577032 ], [ -44.42830491, -14.27997951 ], [ -44.41178199, -14.2815843069999 ], [ -44.487177, -14.3285197 ], [ -44.5655652, -14.34006 ], [ -44.633598699999901, -14.3944726 ], [ -44.6588783999999, -14.3957573 ], [ -44.667985799999897, -14.4238506999999 ], [ -44.688353199999902, -14.4166809 ], [ -44.701293, -14.4497881 ], [ -44.7238192, -14.4490547 ], [ -44.7943253, -14.4965898 ], [ -44.818266299999898, -14.4901957 ], [ -44.813815299999902, -14.5046596999999 ], [ -44.8332382, -14.499827799999901 ], [ -44.8243545, -14.5393769 ], [ -44.847108499999898, -14.5454862 ], [ -44.8587949, -14.5715223 ], [ -44.8439071, -14.566310499999901 ], [ -44.8433866, -14.5808382 ], [ -45.0395114, -14.6798511 ], [ -45.0827727, -14.7487667 ], [ -45.163604099999901, -14.7323845 ], [ -45.205573699999903, -14.7447389 ], [ -45.271183699999902, -14.7988228 ], [ -45.285689499999897, -14.8324777999999 ], [ -45.3164363, -14.8313691 ], [ -45.3164204, -14.8512552 ], [ -45.363975799999899, -14.8716954999999 ], [ -45.3997964, -14.9175013 ], [ -45.434468799999898, -14.9217510999999 ], [ -45.455994299999901, -14.9542607 ], [ -45.5667394, -14.944853 ], [ -45.6159461, -15.0135883999999 ], [ -45.6570586, -15.0273493 ], [ -45.6748119, -15.0805425999999 ], [ -45.717038, -15.0939099 ], [ -45.7302951, -15.1172448999999 ], [ -45.8179671, -15.114186199999899 ], [ -45.871247, -15.158810899999899 ], [ -45.9187247, -15.1333696999999 ], [ -45.9559093, -15.1406663 ], [ -45.9845053, -15.195961 ], [ -46.0295237, -15.2018083 ], [ -46.055945, -15.261812399999901 ], [ -46.0770818, -15.2646817999999 ], [ -46.097088299999903, -15.2431113 ], [ -46.0988173, -15.2167858 ], [ -46.120758099999897, -15.1975017 ] ] ] } },
{ "type": "Feature", "properties": { "cod_macro": "2913", "nome": "NORTE - (NRS - JUAZEIRO)" }, "geometry": { "type": "Polygon", "coordinates": [ [ [ -40.0938197, -11.0860193999999 ], [ -40.1420750999999, -11.0086752 ], [ -40.2111193, -10.9658123999999 ], [ -40.2476879, -10.910568199999901 ], [ -40.2415722, -10.8470452999999 ], [ -40.2606641, -10.8533803 ], [ -40.287821999999899, -10.8357952 ], [ -40.2856156, -10.813637 ], [ -40.3136847, -10.8239695 ], [ -40.333242799999901, -10.8134034999999 ], [ -40.338221, -10.8295125 ], [ -40.3500549, -10.8073338999999 ], [ -40.4012743, -10.800435 ], [ -40.4453994, -10.7521376 ], [ -40.4751894, -10.7640632 ], [ -40.4837826999999, -10.684492599999899 ], [ -40.5071507, -10.7130018 ], [ -40.5491562999999, -10.6996012 ], [ -40.5464019, -10.662320099999899 ], [ -40.59566, -10.683506399999899 ], [ -40.747089199999898, -10.6336453 ], [ -40.7642921999999, -10.5916607 ], [ -40.7995733, -10.6079895 ], [ -40.816590899999902, -10.592499 ], [ -40.8786645, -10.590636 ], [ -40.934689299999903, -10.6052847 ], [ -40.9221057, -10.5584941 ], [ -40.884190799999899, -10.5375624 ], [ -40.8745478, -10.498699 ], [ -40.900452, -10.5175128999999 ], [ -40.9418411, -10.509300199999901 ], [ -40.9671637, -10.4514389 ], [ -41.0020896, -10.4512859 ], [ -41.0187103, -10.431512199999901 ], [ -41.0383262, -10.4513999 ], [ -41.1066617, -10.466665 ], [ -41.1752073, -10.4302321 ], [ -41.2220235, -10.4552886 ], [ -41.2510091, -10.427935799999901 ], [ -41.2599561, -10.3516844 ], [ -41.2865881, -10.3356987999999 ], [ -41.326118699999903, -10.354044799999899 ], [ -41.3329608, -10.3778313999999 ], [ -41.361463399999899, -10.369972099999901 ], [ -41.3543199, -10.387797 ], [ -41.377236099999898, -10.4165422 ], [ -41.4731947, -10.461952499999899 ], [ -41.4530028, -10.4882721999999 ], [ -41.3815221999999, -10.5187405 ], [ -41.391769199999899, -10.5677023 ], [ -41.4570666, -10.597690499999899 ], [ -41.474098399999903, -10.6299958 ], [ -41.4956518, -10.6183091 ], [ -41.511203, -10.6721097 ], [ -41.532970299999903, -10.6794194999999 ], [ -41.5460335, -10.664571599999899 ], [ -41.559406099999897, -10.7053794 ], [ -41.5909101, -10.7273418 ], [ -41.5711558, -10.7599544999999 ], [ -41.5888024, -10.800294 ], [ -41.6681661, -10.8120963 ], [ -41.695246499999897, -10.79331 ], [ -41.7385957, -10.707938 ], [ -41.7690817, -10.7221522999999 ], [ -41.915929499999898, -10.6428364 ], [ -42.0114919, -10.6354372 ], [ -42.065993499999898, -10.5289804999999 ], [ -42.0691497, -10.4942761999999 ], [ -42.089349599999899, -10.476717699999901 ], [ -42.0795428, -10.4572070999999 ], [ -42.0990563, -10.414565 ], [ -42.0918624, -10.382000999999899 ], [ -42.132519, -10.346924 ], [ -42.15966, -10.2579383 ], [ -42.405465799999902, -10.1851222999999 ], [ -42.4030246, -10.2491082 ], [ -42.456259799999899, -10.300360199999901 ], [ -42.4618986999999, -10.3775520999999 ], [ -42.5699992999999, -10.4703512999999 ], [ -42.581674899999904, -10.5375304 ], [ -42.619205, -10.5686436 ], [ -43.2792555999999, -10.2369944 ], [ -43.5846286, -10.248231299999899 ], [ -43.6646802, -10.3239862 ], [ -43.663001699999903, -10.3759034999999 ], [ -43.7219956, -10.3546929 ], [ -43.7707923, -10.3930880999999 ], [ -43.9158894, -10.393084799999899 ], [ -43.8369216, -10.302205 ], [ -43.8372651, -10.2500681999999 ], [ -43.7748708, -10.1683025 ], [ -43.766034499999897, -10.0800571 ], [ -43.692914899999899, -10.077395399999901 ], [ -43.6902815, -10.044635099999899 ], [ -43.6621314, -10.009544199999899 ], [ -43.6663439, -9.98954019999996 ], [ -43.7029527, -9.96611249999995 ], [ -43.690454, -9.929499199999951 ], [ -43.7090353, -9.91321949999997 ], [ -43.653245, -9.839055299999931 ], [ -43.7849217999999, -9.762385 ], [ -43.797260299999898, -9.696497299999979 ], [ -43.8419522, -9.63742759999997 ], [ -43.8504806, -9.54969629999994 ], [ -43.769728799999903, -9.44205119999998 ], [ -43.685759, -9.41779379999997 ], [ -43.5790266, -9.320390199999959 ], [ -43.4587007, -9.26133939999994 ], [ -43.4278231, -9.272586899999959 ], [ -43.361321599999897, -9.36441189999994 ], [ -43.3296134, -9.37181669999995 ], [ -43.2787691999999, -9.42457469999994 ], [ -43.2142901, -9.399648299999971 ], [ -43.191699, -9.42043129999996 ], [ -43.158626399999903, -9.377036499999971 ], [ -43.133164099999902, -9.387282699999959 ], [ -43.119619199999903, -9.371898 ], [ -43.079832199999899, -9.399109 ], [ -43.0607284, -9.395448 ], [ -43.0569432, -9.419135399999959 ], [ -42.9734195999999, -9.40713449999993 ], [ -42.9462488, -9.518413099999981 ], [ -42.9040163, -9.526754199999971 ], [ -42.8733013, -9.563868 ], [ -42.8371387, -9.550371899999959 ], [ -42.8205528, -9.619230399999941 ], [ -42.7699572, -9.61918209999993 ], [ -42.7168953, -9.55627869999995 ], [ -42.7198812, -9.530688399999971 ], [ -42.6799174, -9.549149099999971 ], [ -42.621720599999897, -9.541337499999941 ], [ -42.5886319049999, -9.497350784999981 ], [ -42.493091799999902, -9.494900399999951 ], [ -42.4890688999999, -9.462037189999929 ], [ -42.440584204999901, -9.45617118499996 ], [ -42.422986599999902, -9.413693 ], [ -42.359524599999901, -9.37761319999993 ], [ -42.357049, -9.35256449999997 ], [ -42.3160766, -9.316612299999971 ], [ -42.268912699999902, -9.310446799999969 ], [ -42.2307412, -9.283431499999949 ], [ -42.101272499999901, -9.281571499999931 ], [ -42.0665857, -9.255986 ], [ -42.0246776, -9.24975969999997 ], [ -41.9999053, -9.265972199999959 ], [ -41.9722662, -9.24863809999994 ], [ -41.9179331, -9.27846619999997 ], [ -41.8705206, -9.237431399999929 ], [ -41.8379657999999, -9.242272 ], [ -41.8000703, -9.14802659999998 ], [ -41.7351841, -9.09469979999994 ], [ -41.7264829, -9.01636089999994 ], [ -41.680453699999902, -9.012282299999979 ], [ -41.6694039, -8.990079099999949 ], [ -41.6289978, -8.98489 ], [ -41.605794699999898, -8.957403899999971 ], [ -41.570056599999901, -8.95502949999997 ], [ -41.5652668, -8.97032019999995 ], [ -41.5457959, -8.96167589999993 ], [ -41.5027347, -8.864066 ], [ -41.4242667, -8.80255539999996 ], [ -41.374461499999903, -8.705400899999971 ], [ -41.2815376, -8.736100399999939 ], [ -41.2269785, -8.70470209999996 ], [ -41.112758, -8.703974099999931 ], [ -41.1245693, -8.75267359999998 ], [ -41.1017608, -8.78196429999997 ], [ -41.0362345, -8.785875899999949 ], [ -41.0212409, -8.84356089999994 ], [ -40.9790937, -8.82341709999997 ], [ -40.9548601, -8.843875099999931 ], [ -40.9192371, -8.837177 ], [ -40.8515958999999, -8.952499 ], [ -40.820067, -9.08125869999998 ], [ -40.709889299999901, -9.140881 ], [ -40.685094, -9.13761019999993 ], [ -40.667395699999901, -9.159059199999939 ], [ -40.6945004, -9.23345559999996 ], [ -40.685987899999901, -9.276368199999981 ], [ -40.7564219, -9.315032299999929 ], [ -40.738102599999898, -9.355244299999979 ], [ -40.767159299999904, -9.44541189999995 ], [ -40.7186141, -9.44221709999994 ], [ -40.6281006, -9.48268979999995 ], [ -40.5557585, -9.45793809999998 ], [ -40.5291147, -9.413901599999971 ], [ -40.4677551, -9.42056809999997 ], [ -40.4236595, -9.353465 ], [ -40.3714153, -9.378716699999931 ], [ -40.338865499999898, -9.359891799999961 ], [ -40.2861727, -9.185611399999971 ], [ -40.286706099999897, -9.117351799999939 ], [ -40.255791, -9.06322339999997 ], [ -40.2236023, -9.05666749999995 ], [ -40.1650016, -9.10648779999997 ], [ -40.1298949, -9.110304599999949 ], [ -40.0655631, -9.063065199999929 ], [ -39.9580347, -9.04859159999995 ], [ -39.8734564, -8.93403869999997 ], [ -39.902938199999902, -8.85874359999997 ], [ -39.8929577, -8.828794 ], [ -39.7887962, -8.81910959999993 ], [ -39.7477853, -8.794041 ], [ -39.6931964, -8.798675699999929 ], [ -39.6717136, -8.77758149999994 ], [ -39.6911317, -8.662312899999961 ], [ -39.5952263, -8.651205899999979 ], [ -39.4761113, -8.59279319999996 ], [ -39.409523299999897, -8.53890009999998 ], [ -39.373719499999901, -8.534092499999931 ], [ -39.342306999999899, -8.559677099999931 ], [ -39.284105899999901, -8.56586789999994 ], [ -39.24188, -8.636307399999961 ], [ -39.2454926, -8.68410589999996 ], [ -39.2285219, -8.71031529999993 ], [ -39.180995799999899, -8.70630089999997 ], [ -39.1687128, -8.691504499999949 ], [ -39.1439462, -8.71251909999995 ], [ -39.037577199999902, -8.734690899999981 ], [ -38.9519332, -8.804668199999981 ], [ -38.868104399999901, -8.78386539999997 ], [ -38.804069899999902, -8.789181099999951 ], [ -38.7065435, -8.86226059999996 ], [ -38.6892326, -8.94739559999994 ], [ -38.653726699999901, -8.9839 ], [ -38.630684899999899, -8.98516729999994 ], [ -38.6102769, -8.95732829999997 ], [ -38.6038243, -8.88059059999995 ], [ -38.5704286, -8.830369099999929 ], [ -38.5411396, -8.823486699999931 ], [ -38.4808098, -8.84932609999993 ], [ -38.473292899999898, -8.88954569999993 ], [ -38.51990735, -8.943531299999959 ], [ -38.484042799999898, -9.001021699999971 ], [ -38.4084582, -9.03850129999995 ], [ -38.32354, -8.990009199999969 ], [ -38.289675799999898, -9.03633439999993 ], [ -38.325866699999899, -9.077992599999961 ], [ -38.304423, -9.09821119999998 ], [ -38.319493399999899, -9.138229299999979 ], [ -38.287601, -9.173883899999961 ], [ -38.287512799999902, -9.21712929999995 ], [ -38.2395412, -9.327128899999931 ], [ -38.1944756, -9.38493459999995 ], [ -38.2047641999999, -9.41867429999996 ], [ -38.1549496, -9.443416099999981 ], [ -38.077759699999902, -9.441106699999979 ], [ -37.9979494, -9.49928329999995 ], [ -38.022616399999897, -9.54066479999994 ], [ -38.019562999999899, -9.563602799999961 ], [ -38.061709699999902, -9.59090869999994 ], [ -38.0556245, -9.632197 ], [ -38.037188199999903, -9.62804749999998 ], [ -38.0089614, -9.649058299999981 ], [ -38.032219199999901, -9.66068649999994 ], [ -38.045038299999902, -9.69745489999997 ], [ -38.0325366, -9.770275 ], [ -37.999970699999899, -9.814330899999961 ], [ -37.9954442, -9.846078699999961 ], [ -38.0139796, -9.85726779999993 ], [ -37.994099499999898, -9.880708 ], [ -38.003500099999897, -9.905513799999939 ], [ -37.9554323999999, -9.942999899999959 ], [ -37.9076252, -9.91088049999996 ], [ -37.9127912, -9.937131299999979 ], [ -37.8472437, -9.994281 ], [ -37.825967799999901, -10.0365836 ], [ -37.7826446, -10.043599 ], [ -37.8020145, -10.1124474 ], [ -37.7747608, -10.1423571 ], [ -37.7829268, -10.1824238 ], [ -37.7470908, -10.2380727 ], [ -37.7656795, -10.2518674 ], [ -37.7488597, -10.2643236 ], [ -37.750382699999903, -10.289499099999899 ], [ -37.768662, -10.2891961 ], [ -37.7930104, -10.2469141999999 ], [ -37.836284799999902, -10.2295607999999 ], [ -37.906057, -10.1684117999999 ], [ -37.9518371999999, -10.1614402 ], [ -38.0180452, -10.1234827 ], [ -38.0897173, -10.1479155 ], [ -38.1065670999999, -10.215645299999901 ], [ -38.1245873, -10.227028 ], [ -38.1504863, -10.2162359 ], [ -38.143626099999899, -10.1932960999999 ], [ -38.192412299999901, -10.180333699999901 ], [ -38.2203911, -10.2208436 ], [ -38.3027984, -10.257651399999901 ], [ -38.310122799999903, -10.280473099999901 ], [ -38.360007499999902, -10.268829299999901 ], [ -38.487602, -10.3222241 ], [ -38.558831499999897, -10.276501499999901 ], [ -38.5823217, -10.2823743 ], [ -38.581366, -10.3050373 ], [ -38.881954999999898, -10.2701248 ], [ -39.0773508999999, -10.3805272 ], [ -39.2025862, -10.237109 ], [ -39.2282973, -10.2258712999999 ], [ -39.2355403, -10.1943345 ], [ -39.3222574, -10.1965119 ], [ -39.3714093, -10.1717752 ], [ -39.5257417, -10.1884332 ], [ -39.5351514, -10.1556754 ], [ -39.5543536, -10.1518440999999 ], [ -39.5597018, -10.1067682 ], [ -39.588633199999897, -10.1250646999999 ], [ -39.636565699999899, -10.1213847999999 ], [ -39.653632699999903, -10.1000698 ], [ -39.7373846, -10.064389 ], [ -39.728657499999898, -10.1156025 ], [ -39.7442512, -10.242781599999899 ], [ -39.716846299999901, -10.2774558999999 ], [ -39.713899599999898, -10.3185283 ], [ -39.7393173, -10.3490461 ], [ -39.7312995, -10.4099211999999 ], [ -39.7528209, -10.4400264 ], [ -39.772935399999902, -10.5502944999999 ], [ -39.7463931, -10.6399599 ], [ -39.696157, -10.6743185999999 ], [ -39.709518699999897, -10.720977699999899 ], [ -39.6635309, -10.8101015 ], [ -39.6657936, -10.8381027 ], [ -39.6367452, -10.8447659 ], [ -39.6275726, -10.9149719 ], [ -39.718328912999901, -10.965618487 ], [ -39.825358204999901, -10.9396192949999 ], [ -39.868774415, -10.9033925049999 ], [ -39.923503299999901, -10.91763249 ], [ -39.9520077, -10.8913841 ], [ -40.018457, -10.882807 ], [ -40.0080887, -10.9166021999999 ], [ -40.0245161, -10.9809159 ], [ -39.9819059, -11.151161 ], [ -39.9902403, -11.1625551999999 ], [ -40.059354799999902, -11.0955397 ], [ -40.0938197, -11.0860193999999 ] ] ] } },
{ "type": "Feature", "properties": { "cod_macro": "2914", "nome": "NORDESTE (NRS - ALAGOINHAS)" }, "geometry": { "type": "Polygon", "coordinates": [ [ [ -38.4888245, -12.4122431 ], [ -38.5259699, -12.4156859 ], [ -38.538907799999897, -12.3955660999999 ], [ -38.520801999999897, -12.2593044 ], [ -38.5494365, -12.2447725 ], [ -38.6123128999999, -12.166409499999901 ], [ -38.6581603999999, -12.1929026 ], [ -38.733020199999899, -12.1553908 ], [ -38.7003192, -12.138798 ], [ -38.6577252, -12.053273299999899 ], [ -38.699918, -12.0541757 ], [ -38.7192679, -12.036520699999899 ], [ -38.709905, -11.960115 ], [ -38.6312852, -11.933260899999899 ], [ -38.5970455, -11.9530381 ], [ -38.6048782, -11.9044984999999 ], [ -38.5775740999999, -11.8000018 ], [ -38.542068399999899, -11.7545314 ], [ -38.639938899999898, -11.6932265 ], [ -38.6742408, -11.6929087 ], [ -38.7741465, -11.3563554999999 ], [ -38.8723489, -11.3462344 ], [ -38.9455646, -11.0516948 ], [ -39.0023044, -11.057842 ], [ -39.014221899999903, -11.032731 ], [ -39.0455987, -11.0205470999999 ], [ -39.079218399999903, -11.042905699999899 ], [ -39.1151186, -11.0177189 ], [ -38.9649429, -10.8388179 ], [ -38.9737507, -10.786311 ], [ -38.9126769, -10.7786235 ], [ -38.879781299999898, -10.745983 ], [ -38.7871107, -10.718128 ], [ -38.7704772, -10.7483146 ], [ -38.7333087, -10.7177374 ], [ -38.741976, -10.6436163 ], [ -38.7866548, -10.633438199999899 ], [ -38.7051046, -10.564973899999901 ], [ -38.7010475, -10.5059175 ], [ -38.632720499999898, -10.4671466 ], [ -38.6389583, -10.4512278 ], [ -38.6220915, -10.4386484 ], [ -38.6522122, -10.373329199999899 ], [ -38.5789899, -10.3333595 ], [ -38.5823217, -10.2823743 ], [ -38.5460648, -10.2808527999999 ], [ -38.487602, -10.3222241 ], [ -38.360007499999902, -10.268829299999901 ], [ -38.310122799999903, -10.280473099999901 ], [ -38.3027984, -10.257651399999901 ], [ -38.2203911, -10.2208436 ], [ -38.192412299999901, -10.180333699999901 ], [ -38.143626099999899, -10.1932960999999 ], [ -38.1504863, -10.2162359 ], [ -38.1245873, -10.227028 ], [ -38.1065670999999, -10.215645299999901 ], [ -38.0897173, -10.1479155 ], [ -38.0180452, -10.1234827 ], [ -37.9514247, -10.161601099999899 ], [ -37.917151299999901, -10.162005099999901 ], [ -37.836284799999902, -10.2295607999999 ], [ -37.7930104, -10.2469141999999 ], [ -37.7451248, -10.3135839 ], [ -37.7433128, -10.3383906999999 ], [ -37.8390881999999, -10.3788547 ], [ -37.837541499999901, -10.4011015 ], [ -37.8596092, -10.4271198 ], [ -37.8126051, -10.507247 ], [ -37.8192872, -10.5396416 ], [ -37.8412314999999, -10.554793599999901 ], [ -37.8314627, -10.5842903 ], [ -37.806319, -10.6005274 ], [ -37.808487899999903, -10.6872294999999 ], [ -37.832800099999901, -10.6804746999999 ], [ -37.9662599, -10.7581006 ], [ -38.0320311, -10.7270842999999 ], [ -38.041684, -10.700693999999899 ], [ -38.132807, -10.720874799999899 ], [ -38.1764701, -10.7054626 ], [ -38.2091654, -10.711868599999899 ], [ -38.2093598, -10.7604352999999 ], [ -38.245009, -10.8226415 ], [ -38.227251, -10.9160143 ], [ -38.1806156, -10.942767199999899 ], [ -38.186542099999897, -10.9642064999999 ], [ -38.1700453999999, -10.9889954999999 ], [ -38.1299112, -11.0189146 ], [ -38.1205467999999, -11.0071072 ], [ -38.1019992, -11.0158944999999 ], [ -38.1024196, -11.0439828999999 ], [ -38.0751149, -11.0770939 ], [ -38.0932802, -11.103969 ], [ -38.0656188, -11.1229761 ], [ -38.057180699999897, -11.1720852999999 ], [ -37.9737486, -11.1936888 ], [ -37.9937153, -11.2396408 ], [ -37.986742299999896, -11.2720959 ], [ -38.0147631, -11.285723399999901 ], [ -37.991652, -11.3128427 ], [ -37.999909, -11.340255 ], [ -37.9693214, -11.3728864 ], [ -37.9778173, -11.3926597 ], [ -37.9528038999999, -11.3944875999999 ], [ -37.9431666, -11.4245748 ], [ -37.9277298, -11.4013755 ], [ -37.9054389, -11.408144799999899 ], [ -37.8988964, -11.4383614 ], [ -37.882380399999903, -11.4247046999999 ], [ -37.8660826, -11.4270984 ], [ -37.8803353, -11.433210599999899 ], [ -37.848108399999902, -11.4430288 ], [ -37.8641795999999, -11.4668811999999 ], [ -37.808580499999898, -11.496203099999899 ], [ -37.8122895, -11.517019199999901 ], [ -37.7589745, -11.5253782999999 ], [ -37.7267661, -11.553558399999901 ], [ -37.7024599, -11.5401947 ], [ -37.699913799999898, -11.5624152 ], [ -37.6759509, -11.568493799999899 ], [ -37.6502727, -11.516431 ], [ -37.615726799999898, -11.538601 ], [ -37.5814592, -11.530559 ], [ -37.5785501, -11.5521788999999 ], [ -37.5682573, -11.5384288 ], [ -37.557068399999899, -11.5514530999999 ], [ -37.520067599999898, -11.5493035 ], [ -37.504750499999901, -11.5249100999999 ], [ -37.455488699999897, -11.5231383 ], [ -37.3411467, -11.4423365 ], [ -37.534792799999899, -11.7721377 ], [ -37.5440854, -11.762850899999901 ], [ -37.5207859, -11.726345799999899 ], [ -37.5321039, -11.7010228 ], [ -37.5623259, -11.7038901 ], [ -37.6243335, -11.6614197 ], [ -37.6714267999999, -11.6715351999999 ], [ -37.7134667, -11.6327242999999 ], [ -37.738725299999899, -11.6294404 ], [ -37.7484585, -11.678594299999901 ], [ -37.7272247, -11.726147399999901 ], [ -37.7753157, -11.702082899999899 ], [ -37.7926001, -11.7303509 ], [ -37.832711699999898, -11.7401977 ], [ -37.851006299999902, -11.7667827 ], [ -37.8651624, -11.7604405 ], [ -37.743431299999898, -11.8931004 ], [ -37.762658299999899, -11.9652275 ], [ -37.7397528, -11.9750033 ], [ -37.7481748, -12.0067278999999 ], [ -37.721503299999902, -12.0184444 ], [ -37.7326049, -12.0520321999999 ], [ -37.701694, -12.0630988999999 ], [ -37.6857234, -12.0989791 ], [ -37.8932837, -12.408242099999899 ], [ -37.8946124, -12.3804502999999 ], [ -37.937172599999897, -12.3718223999999 ], [ -37.9513507, -12.4029884 ], [ -37.986755, -12.4137082 ], [ -38.040591999999897, -12.4624117 ], [ -38.0797598, -12.4554191999999 ], [ -38.103400599999901, -12.395531199999899 ], [ -38.1212772, -12.396465 ], [ -38.1541864, -12.358469 ], [ -38.1585347, -12.3020420999999 ], [ -38.137165799999899, -12.292766 ], [ -38.1741532, -12.261192 ], [ -38.2764136, -12.2809205 ], [ -38.282315, -12.3415745999999 ], [ -38.313853799999897, -12.337581199999899 ], [ -38.3899488, -12.4028577 ], [ -38.3751336999999, -12.4086493 ], [ -38.3869346, -12.4306308 ], [ -38.446231699999899, -12.4318736 ], [ -38.4888245, -12.4122431 ] ] ] } },
{ "type": "Feature", "properties": { "cod_macro": "2915", "nome": "LESTE - (NRS - SALVADOR)" }, "geometry": { "type": "MultiPolygon", "coordinates": [ [ [ [ -39.345672099999902, -13.538334 ], [ -39.3567816999999, -13.668709799999901 ], [ -39.3985782, -13.6428735 ], [ -39.392763, -13.6229557999999 ], [ -39.428061899999904, -13.5939774 ], [ -39.471946, -13.6154579 ], [ -39.4995001999999, -13.5858016 ], [ -39.6498257, -13.5501983999999 ], [ -39.7294353, -13.4895189 ], [ -39.7104868, -13.4582596999999 ], [ -39.723086899999899, -13.4133681 ], [ -39.7420862, -13.4130858 ], [ -39.7473047, -13.375193099999899 ], [ -39.7267572, -13.3689666999999 ], [ -39.7395488, -13.3402967 ], [ -39.728714, -13.315747799999899 ], [ -39.7601667, -13.2480279 ], [ -39.806084999999896, -13.2321128 ], [ -39.8384649, -13.1903606 ], [ -39.7661084, -13.1789074 ], [ -39.7432193, -13.1918944 ], [ -39.757689399999897, -13.131083 ], [ -39.738981099999897, -13.118636 ], [ -39.6973353, -13.1242541999999 ], [ -39.7672469, -13.047704699999899 ], [ -39.806179299999897, -12.9777293 ], [ -39.898421299999903, -12.9353621 ], [ -39.8998045, -12.874644499999899 ], [ -39.928121299999901, -12.8170832 ], [ -39.894195599999897, -12.7533925 ], [ -39.8556988, -12.7956004 ], [ -39.7973021, -12.704937099999899 ], [ -39.7918119, -12.5576306 ], [ -39.662918299999902, -12.5567920999999 ], [ -39.6195410999999, -12.598129899999901 ], [ -39.5716704, -12.5496911 ], [ -39.529629, -12.5857257 ], [ -39.4170457, -12.6160275 ], [ -39.322719999999897, -12.5480056 ], [ -39.2265131999999, -12.5464623 ], [ -39.2048091, -12.512385799999899 ], [ -39.088510299999903, -12.495727299999899 ], [ -39.067244, -12.452868899999901 ], [ -39.0300842, -12.439663499999901 ], [ -39.0080037, -12.471834999999899 ], [ -38.9685226, -12.4704991999999 ], [ -38.921297099999897, -12.4945653999999 ], [ -38.9134533, -12.4804437999999 ], [ -38.8900206, -12.5063006 ], [ -38.840407399999897, -12.514866499999901 ], [ -38.8340598, -12.4921361999999 ], [ -38.851942699999903, -12.4837826999999 ], [ -38.827401699999903, -12.3967165999999 ], [ -38.835222, -12.368080899999899 ], [ -38.7951897, -12.3695005 ], [ -38.8108448999999, -12.3938805 ], [ -38.7423008, -12.4732471 ], [ -38.656129099999902, -12.4842189 ], [ -38.644326099999901, -12.5130715 ], [ -38.640065499999899, -12.4755504 ], [ -38.611511699999902, -12.4967895999999 ], [ -38.540920399999898, -12.4115022 ], [ -38.5027415, -12.4276161 ], [ -38.4888245, -12.4122431 ], [ -38.446231699999899, -12.4318736 ], [ -38.3869346, -12.4306308 ], [ -38.3751336999999, -12.4086493 ], [ -38.3899488, -12.4028577 ], [ -38.313853799999897, -12.337581199999899 ], [ -38.282315, -12.3415745999999 ], [ -38.2764136, -12.2809205 ], [ -38.1741532, -12.261192 ], [ -38.137165799999899, -12.292766 ], [ -38.1585347, -12.3020420999999 ], [ -38.1541864, -12.358469 ], [ -38.1212772, -12.396465 ], [ -38.103400599999901, -12.395531199999899 ], [ -38.0797598, -12.4554191999999 ], [ -38.040591999999897, -12.4624117 ], [ -37.986755, -12.4137082 ], [ -37.9513507, -12.4029884 ], [ -37.943162899999898, -12.3739639 ], [ -37.8946124, -12.3804502999999 ], [ -37.8932837, -12.408242099999899 ], [ -38.001463999999899, -12.578011199999899 ], [ -38.352708499999899, -12.9567855 ], [ -38.3872729, -12.956840999999899 ], [ -38.468747, -13.014881699999901 ], [ -38.6433387, -13.0153131 ], [ -38.712618099999901, -13.0611023 ], [ -38.7622769, -13.1189343 ], [ -38.908462299999897, -13.2130981999999 ], [ -38.957377199999897, -13.2156932 ], [ -38.9899449, -13.2547853 ], [ -39.007956799999903, -13.2259802 ], [ -39.026651, -13.244997199999901 ], [ -39.0752491, -13.2437694 ], [ -39.0707186, -13.2596737 ], [ -39.115072499999897, -13.2535047 ], [ -39.143465999999897, -13.224004 ], [ -39.182972999999897, -13.2406314999999 ], [ -39.2066376, -13.2223476 ], [ -39.219352199999904, -13.2398332 ], [ -39.2103988, -13.2954242 ], [ -39.2688506, -13.263929399999901 ], [ -39.2986284999999, -13.2172942 ], [ -39.3361058, -13.1990643999999 ], [ -39.3491361, -13.252919599999901 ], [ -39.4039855, -13.228388299999899 ], [ -39.416775399999899, -13.2427026 ], [ -39.438537799999899, -13.2369874999999 ], [ -39.4288253, -13.2982458 ], [ -39.445980399999897, -13.2877942 ], [ -39.452734099999901, -13.3017743999999 ], [ -39.4778156, -13.2974272 ], [ -39.4661257, -13.3668433 ], [ -39.4502661, -13.3722086999999 ], [ -39.4280184, -13.330352699999899 ], [ -39.410772, -13.3270492 ], [ -39.3862996, -13.343257999999899 ], [ -39.3520662, -13.3380577999999 ], [ -39.361348399999898, -13.3555180999999 ], [ -39.3501853, -13.368863099999899 ], [ -39.2949197, -13.380487899999901 ], [ -39.312262599999897, -13.3911912999999 ], [ -39.3246399, -13.4392961 ], [ -39.302859899999902, -13.4853383999999 ], [ -39.345672099999902, -13.538334 ] ] ], [ [ [ -37.7332421, -12.0489395 ], [ -37.721503299999902, -12.0184444 ], [ -37.7481748, -12.0067278999999 ], [ -37.7397528, -11.9750033 ], [ -37.762658299999899, -11.9652275 ], [ -37.743431299999898, -11.8931004 ], [ -37.865864499999901, -11.7635907 ], [ -37.7926001, -11.7303509 ], [ -37.7753157, -11.702082899999899 ], [ -37.7272247, -11.726147399999901 ], [ -37.7484585, -11.678594299999901 ], [ -37.7407772, -11.6293896999999 ], [ -37.7134667, -11.6327242999999 ], [ -37.6714267999999, -11.6715351999999 ], [ -37.6243335, -11.6614197 ], [ -37.5623259, -11.7038901 ], [ -37.5321039, -11.7010228 ], [ -37.5207859, -11.726345799999899 ], [ -37.5407177, -11.7722089 ], [ -37.5128384, -11.740682799999901 ], [ -37.6857234, -12.0989791 ], [ -37.701694, -12.0630988999999 ], [ -37.7332421, -12.0489395 ] ] ] ] } },
{ "type": "Feature", "properties": { "cod_macro": "2916", "nome": "EXTREMO SUL (NRS - TEIXEIRA FREITAS)" }, "geometry": { "type": "MultiPolygon", "coordinates": [ [ [ [ -39.6400151, -18.2524766 ], [ -39.6701586, -18.3485603 ], [ -39.6742268, -18.3247425 ], [ -40.2223506, -17.9804174 ], [ -40.226822899999902, -17.9582598 ], [ -40.2597997, -17.9400218 ], [ -40.2635475, -17.9220233 ], [ -40.2126577, -17.8957940999999 ], [ -40.1741273, -17.8515611999999 ], [ -40.218075699999901, -17.795659 ], [ -40.2207966, -17.737247399999902 ], [ -40.280361899999903, -17.7227865999999 ], [ -40.3467014, -17.6119993 ], [ -40.354658099999902, -17.6442723 ], [ -40.371962499999903, -17.612458 ], [ -40.396811699999901, -17.6256053 ], [ -40.4144692, -17.6100964 ], [ -40.4106843, -17.568227299999901 ], [ -40.4437404, -17.579012299999899 ], [ -40.460414899999897, -17.5685022 ], [ -40.4890624, -17.519789699999901 ], [ -40.4830001, -17.488513 ], [ -40.520578999999898, -17.4448113 ], [ -40.6234751, -17.405980699999901 ], [ -40.5986644, -17.389636499999899 ], [ -40.605793999999896, -17.3599674 ], [ -40.592727099999898, -17.3454730999999 ], [ -40.6090252, -17.326968399999899 ], [ -40.5477509, -17.283706299999899 ], [ -40.5722499, -17.2513728 ], [ -40.552383899999903, -17.199153099999901 ], [ -40.5777459, -17.16796 ], [ -40.5566075, -17.0968111 ], [ -40.5714143, -17.0638855 ], [ -40.548507599999901, -16.9906217999999 ], [ -40.5163267, -16.9635747999999 ], [ -40.4850044, -16.8789707 ], [ -40.4157167, -16.8995006 ], [ -40.366485, -16.874172299999898 ], [ -40.331522999999898, -16.9080273 ], [ -40.3027738, -16.8922436 ], [ -40.2816371, -16.9011836 ], [ -40.246907099999902, -16.8457395 ], [ -40.2578025, -16.806541 ], [ -40.345493599999898, -16.787267499999899 ], [ -40.3101667, -16.7362155 ], [ -40.312987899999897, -16.6754341 ], [ -40.2754901, -16.573417699999901 ], [ -40.247025699999902, -16.573562299999899 ], [ -40.2341276, -16.557932299999901 ], [ -40.1578974, -16.5794549 ], [ -40.1707810999999, -16.523622 ], [ -40.116545599999903, -16.4664996 ], [ -40.0986641, -16.4212100999999 ], [ -40.0970479, -16.4480467 ], [ -40.069183, -16.4607257 ], [ -39.991102, -16.312734299999899 ], [ -39.966672699999897, -16.3272092 ], [ -39.9522397, -16.2978550999999 ], [ -39.916678299999901, -16.283842799999899 ], [ -39.936521099999901, -16.2457808 ], [ -39.8833906, -16.194693 ], [ -39.896956499999902, -16.141604 ], [ -39.880514199999901, -16.143745399999901 ], [ -39.8568289, -16.1138248 ], [ -39.8820034, -16.068033 ], [ -39.9356862, -16.023747899999901 ], [ -39.914797899999897, -15.9999933999999 ], [ -39.8655055, -15.996795899999899 ], [ -39.8433148, -15.9765811 ], [ -39.8709067, -15.952822399999899 ], [ -39.9090952, -15.946643499999899 ], [ -39.9491093, -15.8970886 ], [ -39.9471728, -15.8679741 ], [ -39.9295423, -15.884268899999901 ], [ -39.9109832, -15.8671251 ], [ -39.8866173, -15.8889798 ], [ -39.859558, -15.873349099999899 ], [ -39.8360863999999, -15.8842155999999 ], [ -39.8365156, -15.869630599999899 ], [ -39.814687799999902, -15.8657972 ], [ -39.8161463, -15.8462643 ], [ -39.789585, -15.833865 ], [ -39.7878481, -15.8122792 ], [ -39.6470158, -15.7416491 ], [ -39.6322018, -15.743395399999899 ], [ -39.6210267, -15.7739672 ], [ -39.5672279, -15.7731803999999 ], [ -39.5483907999999, -15.7905681999999 ], [ -39.563715699999896, -15.7895169 ], [ -39.570636099999902, -15.7907139 ], [ -39.572595099999901, -15.7945697 ], [ -39.489391699999899, -15.8201634 ], [ -39.4849799, -15.8391913 ], [ -39.4387594, -15.7935765999999 ], [ -39.4004656, -15.793953299999901 ], [ -39.3869434, -15.8249337 ], [ -39.3722915, -15.8224102 ], [ -39.3474355, -15.8503767 ], [ -39.2871643, -15.8437023 ], [ -39.2812924999999, -15.8299797 ], [ -39.270397499999902, -15.8433509 ], [ -39.2472193, -15.8041102 ], [ -39.222012999999897, -15.8034997 ], [ -39.213086299999901, -15.788245199999899 ], [ -39.174193199999898, -15.8097938 ], [ -39.1399733, -15.799014199999901 ], [ -39.110176585, -15.8255283999999 ], [ -39.094577399999899, -15.813756605 ], [ -39.106525807, -15.787095212999899 ], [ -38.893608099999902, -15.7666808999999 ], [ -38.8528393, -15.8493541 ], [ -38.952049499999902, -16.0969527 ], [ -38.9481067, -16.155666499999899 ], [ -38.9741984999999, -16.213213199999899 ], [ -39.011063799999903, -16.2457858 ], [ -39.0236429, -16.3068016 ], [ -39.006060799999901, -16.3327553 ], [ -39.0087732, -16.374921099999899 ], [ -39.0336778, -16.3873601 ], [ -39.0617288, -16.4340665 ], [ -39.1040118, -16.6990180999999 ], [ -39.1416455, -16.7614573 ], [ -39.141962099999901, -16.8684413 ], [ -39.1066417, -16.8968052 ], [ -39.1514591, -16.9422489 ], [ -39.182016, -17.112355299999901 ], [ -39.212699, -17.1654602999999 ], [ -39.2210726, -17.3017740999999 ], [ -39.1918304, -17.4443496 ], [ -39.1939285999999, -17.58242458 ], [ -39.135575, -17.689514 ], [ -39.208052, -17.747346 ], [ -39.2059762, -17.772666399999899 ], [ -39.2581949, -17.826760799999899 ], [ -39.2711461, -17.8663804 ], [ -39.3195987, -17.8916576 ], [ -39.3644416, -17.890754 ], [ -39.3619092, -17.9053893 ], [ -39.4688002, -17.9712403 ], [ -39.6400151, -18.2524766 ] ] ], [ [ [ -38.700088799999897, -17.9817260999999 ], [ -38.7011221, -17.978796799999898 ], [ -38.700599899999901, -17.9800036 ], [ -38.6975341, -17.9792762 ], [ -38.6964763, -17.980129299999899 ], [ -38.700088799999897, -17.9817260999999 ] ] ], [ [ [ -38.696358299999901, -17.978864299999898 ], [ -38.6961793, -17.9790737 ], [ -38.6963421, -17.9789961 ], [ -38.696358299999901, -17.978864299999898 ] ] ], [ [ [ -38.7090961, -17.9715677 ], [ -38.707982199999897, -17.968946899999899 ], [ -38.7071683, -17.9696850999999 ], [ -38.7090961, -17.9715677 ] ] ], [ [ [ -39.2093257, -17.96751 ], [ -39.2070742, -17.9666816 ], [ -39.208771199999902, -17.968264299999898 ], [ -39.2093257, -17.96751 ] ] ], [ [ [ -38.7117272, -17.9677536999999 ], [ -38.7078188, -17.964661 ], [ -38.708234699999899, -17.967825999999899 ], [ -38.7117272, -17.9677536999999 ] ] ], [ [ [ -38.7043029, -17.9650511 ], [ -38.6986883, -17.961307599999898 ], [ -38.691727199999903, -17.9655779 ], [ -38.7043029, -17.9650511 ] ] ], [ [ [ -38.6922001, -17.9602336 ], [ -38.693336299999899, -17.9611068 ], [ -38.6933898999999, -17.9607468 ], [ -38.6922001, -17.9602336 ] ] ], [ [ [ -39.1975730999999, -17.7581269 ], [ -39.1854461, -17.7481192 ], [ -39.176131499999897, -17.7403694999999 ], [ -39.1802769, -17.7469217999999 ], [ -39.1975730999999, -17.7581269 ] ] ], [ [ [ -38.956056799999899, -16.2252773 ], [ -38.9552815, -16.2248526999999 ], [ -38.955625199999901, -16.2263113 ], [ -38.956056799999899, -16.2252773 ] ] ], [ [ [ -38.9199139, -16.1791835 ], [ -38.919128, -16.1781159 ], [ -38.918999799999902, -16.1791049 ], [ -38.9199139, -16.1791835 ] ] ], [ [ [ -38.9229506, -16.0313239 ], [ -38.922157, -16.028531999999899 ], [ -38.921913, -16.028475899999901 ], [ -38.9229506, -16.0313239 ] ] ] ] } },
{ "type": "Feature", "properties": { "cod_macro": "2917", "nome": "CENTRO-LESTE (NRS - FEIRA SANTANA)" }, "geometry": { "type": "Polygon", "coordinates": [ [ [ -41.6064411999999, -13.4261829 ], [ -41.6340364, -13.4130479 ], [ -41.676764999999897, -13.3651743 ], [ -41.6718776, -13.352994399999901 ], [ -41.707669399999901, -13.3698562 ], [ -41.7461415, -13.3246053 ], [ -41.7914355, -13.3731033 ], [ -41.792336, -13.4239307999999 ], [ -41.8696724, -13.3646474 ], [ -41.8696882, -13.345694799999899 ], [ -41.909136299999901, -13.3114484 ], [ -41.9132379, -13.2632583999999 ], [ -41.985768999999898, -13.234203 ], [ -42.014857999999897, -13.1888387 ], [ -42.05915, -13.1814079 ], [ -42.10365631, -13.132727209999899 ], [ -42.1124116, -13.0322423 ], [ -42.1606801, -13.002450399999899 ], [ -42.170105, -12.9523487 ], [ -42.212089299999903, -12.921746299999899 ], [ -42.269882, -12.7174206999999 ], [ -42.2972369, -12.7034586 ], [ -42.353543699999904, -12.716955299999899 ], [ -42.4505194, -12.6870605 ], [ -42.5032222, -12.7170401999999 ], [ -42.5286861, -12.6911830999999 ], [ -42.5804947, -12.6914753999999 ], [ -42.582590099999898, -12.6631555 ], [ -42.605224, -12.658193599999899 ], [ -42.6271752, -12.627750299999899 ], [ -42.6232383, -12.6049583999999 ], [ -42.6547044, -12.5344109 ], [ -42.6388962, -12.5007982999999 ], [ -42.5897408, -12.5096687 ], [ -42.5793634999999, -12.528911 ], [ -42.5329905, -12.5468202 ], [ -42.4948775, -12.544678099999899 ], [ -42.4255588, -12.4973350999999 ], [ -42.370326, -12.4811895 ], [ -42.370027, -12.4580786 ], [ -42.3298156, -12.4826237 ], [ -42.312001699999897, -12.4084717 ], [ -42.2502868, -12.4032164 ], [ -42.270249, -12.311076 ], [ -42.1241208, -12.2776792 ], [ -42.110366, -12.3079827 ], [ -42.09856, -12.2915687 ], [ -42.039818, -12.2911217 ], [ -42.0568049, -12.220661 ], [ -42.0318458, -12.2302824999999 ], [ -41.9848722, -12.291447199999901 ], [ -41.9681123, -12.2658948 ], [ -41.9890508, -12.2310952999999 ], [ -41.9664880999999, -12.2218050999999 ], [ -41.9688601, -12.141263599999901 ], [ -41.9832934, -12.1253596 ], [ -41.9676463, -12.0870315 ], [ -41.944445, -12.0780243 ], [ -41.982631399999903, -12.0444067 ], [ -41.9792846, -12.0211886 ], [ -41.943873799999899, -12.0145635 ], [ -41.9623706, -11.9690856999999 ], [ -41.9936779, -11.9744689 ], [ -41.9973476, -11.9043986999999 ], [ -42.026201, -11.888527199999899 ], [ -42.0271675, -11.8506181999999 ], [ -42.0060323, -11.8352652 ], [ -42.0214721, -11.8151981999999 ], [ -41.651734099999899, -12.0136874999999 ], [ -41.453901099999896, -12.0990408 ], [ -41.4688676, -12.1080497 ], [ -41.354871199999899, -12.1683977 ], [ -41.36823, -12.082958699999899 ], [ -41.3971799, -12.0738651 ], [ -41.4166127, -11.9980168 ], [ -41.455656299999902, -11.969639 ], [ -41.425546499999903, -11.9341421 ], [ -41.3916081, -11.7703824 ], [ -41.2493803999999, -11.813955 ], [ -41.255523099999898, -11.9023655999999 ], [ -41.099898799999899, -11.9568131999999 ], [ -41.1093858999999, -11.9449071999999 ], [ -41.0861161, -11.9191830999999 ], [ -41.06353, -11.9317196 ], [ -41.024888299999901, -12.002242099999901 ], [ -40.972525399999903, -12.016416499999901 ], [ -40.920524, -12.0143719 ], [ -40.8776204, -11.973565399999901 ], [ -40.8332245, -11.9603582 ], [ -40.7951457, -11.9621248 ], [ -40.771879899999902, -11.9939376 ], [ -40.730306799999902, -11.999828599999899 ], [ -40.6707094, -11.9375684999999 ], [ -40.5778386, -11.8982568 ], [ -40.622096199999902, -11.8377280999999 ], [ -40.4844294, -11.824598 ], [ -40.490080599999899, -11.8057004 ], [ -40.470609599999896, -11.80253 ], [ -40.4335786, -11.7489581 ], [ -40.4501832, -11.6992875999999 ], [ -40.383218699999901, -11.644087699999901 ], [ -40.373083999999899, -11.6160767 ], [ -40.3534159, -11.6758406 ], [ -40.3702584, -11.7554959 ], [ -40.3638195, -11.827895 ], [ -40.2968840999999, -11.809805 ], [ -40.193061199999903, -11.8280134999999 ], [ -40.1616425, -11.8491098 ], [ -40.0588954, -11.839615299999901 ], [ -40.038166299999901, -11.850122699999901 ], [ -40.038567699999902, -11.8320878 ], [ -40.0154903, -11.832361299999899 ], [ -40.019212, -11.8062467 ], [ -39.9948137, -11.7999611 ], [ -39.9984798999999, -11.7798445 ], [ -39.907292285, -11.7163049 ], [ -39.925530389999899, -11.6674657849999 ], [ -39.9564758, -11.6479648 ], [ -39.968584103, -11.4908669 ], [ -39.937054095, -11.478302415 ], [ -39.92388339, -11.4990701099999 ], [ -39.848267, -11.480669299999899 ], [ -39.819054, -11.5039576999999 ], [ -39.7715087, -11.4663050999999 ], [ -39.7556162, -11.426521099999899 ], [ -39.8485707, -11.3503378999999 ], [ -39.8751897, -11.3171745999999 ], [ -39.861846399999898, -11.3129367999999 ], [ -39.955298399999897, -11.2486547 ], [ -39.9529984, -11.1568735999999 ], [ -39.9759682, -11.1607159 ], [ -39.9846605, -11.1454305999999 ], [ -40.0245161, -10.9809159 ], [ -40.0080887, -10.9166021999999 ], [ -40.01857, -10.8829431999999 ], [ -39.9985296, -10.8753578999999 ], [ -39.9669673, -10.8980561 ], [ -39.9520077, -10.8913841 ], [ -39.923503299999901, -10.91763249 ], [ -39.868774415, -10.9033925049999 ], [ -39.825358204999901, -10.9396192949999 ], [ -39.718328912999901, -10.965618487 ], [ -39.6275726, -10.9149719 ], [ -39.6367452, -10.8447659 ], [ -39.6657936, -10.8381027 ], [ -39.6635309, -10.8101015 ], [ -39.709518699999897, -10.720977699999899 ], [ -39.696157, -10.6743185999999 ], [ -39.7463931, -10.6399599 ], [ -39.772935399999902, -10.5502944999999 ], [ -39.7528209, -10.4400264 ], [ -39.7312995, -10.4099211999999 ], [ -39.7393173, -10.3490461 ], [ -39.713899599999898, -10.3185283 ], [ -39.716846299999901, -10.2774558999999 ], [ -39.7442512, -10.242781599999899 ], [ -39.728657499999898, -10.1156025 ], [ -39.7373846, -10.064389 ], [ -39.653632699999903, -10.1000698 ], [ -39.636565699999899, -10.1213847999999 ], [ -39.588633199999897, -10.1250646999999 ], [ -39.5597018, -10.1067682 ], [ -39.5543536, -10.1518440999999 ], [ -39.5351514, -10.1556754 ], [ -39.5257417, -10.1884332 ], [ -39.3714093, -10.1717752 ], [ -39.3222574, -10.1965119 ], [ -39.2355403, -10.1943345 ], [ -39.2282973, -10.2258712999999 ], [ -39.2025862, -10.237109 ], [ -39.0773508999999, -10.3805272 ], [ -38.881954999999898, -10.2701248 ], [ -38.5790612, -10.306775 ], [ -38.5789899, -10.3333595 ], [ -38.6522122, -10.373329199999899 ], [ -38.6220915, -10.4386484 ], [ -38.6389583, -10.4512278 ], [ -38.632720499999898, -10.4671466 ], [ -38.7010475, -10.5059175 ], [ -38.7051046, -10.564973899999901 ], [ -38.7866548, -10.633438199999899 ], [ -38.741976, -10.6436163 ], [ -38.7333087, -10.7177374 ], [ -38.7704772, -10.7483146 ], [ -38.7871107, -10.718128 ], [ -38.879781299999898, -10.745983 ], [ -38.9126769, -10.7786235 ], [ -38.9737507, -10.786311 ], [ -38.9649429, -10.8388179 ], [ -39.115153099999901, -11.0181296 ], [ -39.079218399999903, -11.042905699999899 ], [ -39.0455987, -11.0205470999999 ], [ -39.014221899999903, -11.032731 ], [ -39.0023044, -11.057842 ], [ -38.9455646, -11.0516948 ], [ -38.8723489, -11.3462344 ], [ -38.7741465, -11.3563554999999 ], [ -38.6742408, -11.6929087 ], [ -38.639938899999898, -11.6932265 ], [ -38.542068399999899, -11.7545314 ], [ -38.5775740999999, -11.8000018 ], [ -38.6048782, -11.9044984999999 ], [ -38.5970455, -11.9530381 ], [ -38.6312852, -11.933260899999899 ], [ -38.709905, -11.960115 ], [ -38.7192679, -12.036520699999899 ], [ -38.699918, -12.0541757 ], [ -38.6577252, -12.053273299999899 ], [ -38.7003192, -12.138798 ], [ -38.733020199999899, -12.1553908 ], [ -38.6581603999999, -12.1929026 ], [ -38.6123128999999, -12.166409499999901 ], [ -38.5494365, -12.2447725 ], [ -38.520801999999897, -12.2593044 ], [ -38.5390212, -12.3922954999999 ], [ -38.5263932, -12.4171471 ], [ -38.5621993, -12.4224712999999 ], [ -38.611511699999902, -12.4967895999999 ], [ -38.640065499999899, -12.4755504 ], [ -38.644326099999901, -12.5130715 ], [ -38.656129099999902, -12.4842189 ], [ -38.7423008, -12.4732471 ], [ -38.8108448999999, -12.3938805 ], [ -38.7951897, -12.3695005 ], [ -38.8361879, -12.3681855 ], [ -38.827401699999903, -12.3967165999999 ], [ -38.851942699999903, -12.4837826999999 ], [ -38.8340598, -12.4921361999999 ], [ -38.8389203, -12.5143980999999 ], [ -38.8900206, -12.5063006 ], [ -38.9134533, -12.4804437999999 ], [ -38.921297099999897, -12.4945653999999 ], [ -38.9685226, -12.4704991999999 ], [ -39.0080037, -12.471834999999899 ], [ -39.032724099999903, -12.4399463 ], [ -39.067244, -12.452868899999901 ], [ -39.088510299999903, -12.495727299999899 ], [ -39.2048091, -12.512385799999899 ], [ -39.2265131999999, -12.5464623 ], [ -39.322719999999897, -12.5480056 ], [ -39.4170457, -12.6160275 ], [ -39.529629, -12.5857257 ], [ -39.5610942, -12.5514785999999 ], [ -39.578960299999899, -12.551588 ], [ -39.6195410999999, -12.598129899999901 ], [ -39.649464599999902, -12.5606003 ], [ -39.733774299999901, -12.5526598 ], [ -39.7473423, -12.5639153 ], [ -39.765999599999901, -12.5485161 ], [ -39.7918119, -12.5576306 ], [ -39.7973021, -12.704937099999899 ], [ -39.8556988, -12.7956004 ], [ -39.894195599999897, -12.7533925 ], [ -39.928121299999901, -12.8170832 ], [ -39.8998045, -12.874644499999899 ], [ -39.9881075, -12.9306306 ], [ -39.9928434999999, -12.9656904999999 ], [ -40.0654392, -12.9927183999999 ], [ -40.144015099999898, -12.9823024999999 ], [ -40.1991753, -13.048685 ], [ -40.3211444, -13.040358399999899 ], [ -40.3459412999999, -13.062547 ], [ -40.3299196, -13.0912614 ], [ -40.4010036, -13.066262799999899 ], [ -40.409569599999898, -13.0873352999999 ], [ -40.46866, -13.1129505 ], [ -40.511490299999899, -13.1764820999999 ], [ -40.584796, -13.2153256 ], [ -40.6272584, -13.1825742 ], [ -40.71973, -13.2390414999999 ], [ -40.7244461, -13.2766851 ], [ -40.783592499999898, -13.367453399999899 ], [ -40.8011372, -13.3337645 ], [ -40.861954, -13.318745799999901 ], [ -40.8710919, -13.2761791999999 ], [ -40.9183297, -13.2295695999999 ], [ -41.0103442, -13.2609103 ], [ -41.088844, -13.2557983999999 ], [ -41.0798272, -13.2746061999999 ], [ -41.141931, -13.299439499999901 ], [ -41.1851025, -13.2299512 ], [ -41.290571499999899, -13.3224723 ], [ -41.3827428, -13.2711884999999 ], [ -41.399268499999899, -13.2244259 ], [ -41.4539847, -13.2630778999999 ], [ -41.437023199999899, -13.3288305 ], [ -41.4458799, -13.383578199999899 ], [ -41.5474078, -13.425871599999899 ], [ -41.5524821, -13.4092755999999 ], [ -41.6064411999999, -13.4261829 ] ] ] } },
{ "type": "Feature", "properties": { "cod_macro": "2918", "nome": "CENTRO - NORTE (NRS - JACOBINA)" }, "geometry": { "type": "Polygon", "coordinates": [ [ [ -42.0889131, -12.2914953 ], [ -42.090208399999902, -12.1793307 ], [ -42.246607599999898, -11.9467799 ], [ -42.2914033, -11.8535575 ], [ -42.3017861, -11.7838017999999 ], [ -42.3436505, -11.7240416999999 ], [ -42.3600246, -11.713986799999899 ], [ -42.3686137, -11.760753099999899 ], [ -42.3912116, -11.7524698 ], [ -42.4191129, -11.7651351 ], [ -42.4721506, -11.7252346999999 ], [ -42.4876149, -11.7753728 ], [ -42.594372, -11.7084788 ], [ -42.7467146, -11.7311561 ], [ -42.742769399999901, -11.7054684 ], [ -42.7884096, -11.6904713 ], [ -42.8396372, -11.6217351999999 ], [ -42.9211017, -11.5789473 ], [ -42.9397887, -11.5860433 ], [ -42.934494599999901, -11.6286236 ], [ -42.9538289, -11.6243585999999 ], [ -43.0397247, -11.5554786 ], [ -43.0549727, -11.560359 ], [ -43.0567712, -11.5285294999999 ], [ -43.2646935, -11.4824116 ], [ -43.221486599999899, -11.3693511 ], [ -43.1725666, -11.320701799999901 ], [ -43.198554699999903, -11.2318433 ], [ -43.144893599999897, -11.1573099 ], [ -43.096568799999901, -11.0281603 ], [ -43.051318799999898, -11.005773 ], [ -43.0371043, -10.9669857 ], [ -42.9885131, -10.9397043 ], [ -42.988284099999902, -10.9083788 ], [ -42.943416399999897, -10.881834 ], [ -42.936384299999901, -10.85869 ], [ -42.8755853, -10.8370909 ], [ -42.859601499999897, -10.808971799999901 ], [ -42.784994299999902, -10.818826699999899 ], [ -42.7483392, -10.7864673 ], [ -42.7030692, -10.7146802999999 ], [ -42.661309199999899, -10.5880185 ], [ -42.5871974, -10.5451042 ], [ -42.5699992999999, -10.4703512999999 ], [ -42.4644863, -10.3821943999999 ], [ -42.456259799999899, -10.300360199999901 ], [ -42.4030246, -10.2491082 ], [ -42.405465799999902, -10.1851222999999 ], [ -42.15966, -10.2579383 ], [ -42.132519, -10.346924 ], [ -42.0918624, -10.382000999999899 ], [ -42.0990563, -10.414565 ], [ -42.0795428, -10.4572070999999 ], [ -42.089349599999899, -10.476717699999901 ], [ -42.0691497, -10.4942761999999 ], [ -42.065993499999898, -10.5289804999999 ], [ -42.0114919, -10.6354372 ], [ -41.915929499999898, -10.6428364 ], [ -41.7690817, -10.7221522999999 ], [ -41.7385957, -10.707938 ], [ -41.695246499999897, -10.79331 ], [ -41.6681661, -10.8120963 ], [ -41.5888024, -10.800294 ], [ -41.5711558, -10.7599544999999 ], [ -41.5909101, -10.7273418 ], [ -41.559406099999897, -10.7053794 ], [ -41.5460335, -10.664571599999899 ], [ -41.532970299999903, -10.6794194999999 ], [ -41.511203, -10.6721097 ], [ -41.4956518, -10.6183091 ], [ -41.474098399999903, -10.6299958 ], [ -41.4570666, -10.597690499999899 ], [ -41.391769199999899, -10.5677023 ], [ -41.3815221999999, -10.5187405 ], [ -41.4530028, -10.4882721999999 ], [ -41.4731947, -10.461952499999899 ], [ -41.377236099999898, -10.4165422 ], [ -41.3543199, -10.387797 ], [ -41.361463399999899, -10.369972099999901 ], [ -41.3329608, -10.3778313999999 ], [ -41.3138705, -10.344425 ], [ -41.2865881, -10.3356987999999 ], [ -41.2605892999999, -10.3508846 ], [ -41.2510091, -10.427935799999901 ], [ -41.218015, -10.4565818999999 ], [ -41.175828099999897, -10.4302279 ], [ -41.1069355999999, -10.4666632 ], [ -41.0383262, -10.4513999 ], [ -41.020061499999898, -10.4314856 ], [ -41.0020896, -10.4512859 ], [ -40.9671637, -10.4514389 ], [ -40.942157, -10.5091318999999 ], [ -40.900452, -10.5175128999999 ], [ -40.8829832, -10.494024399999899 ], [ -40.871587799999901, -10.5028500999999 ], [ -40.8952128, -10.5510479 ], [ -40.9221057, -10.5584941 ], [ -40.934689299999903, -10.6052847 ], [ -40.8786645, -10.590636 ], [ -40.816590899999902, -10.592499 ], [ -40.7995733, -10.6079895 ], [ -40.7642921999999, -10.5916607 ], [ -40.747089199999898, -10.6336453 ], [ -40.59566, -10.683506399999899 ], [ -40.5464019, -10.662320099999899 ], [ -40.5491562999999, -10.6996012 ], [ -40.5071507, -10.7130018 ], [ -40.4794939, -10.6885417999999 ], [ -40.4751894, -10.7640632 ], [ -40.4453994, -10.7521376 ], [ -40.4012743, -10.800435 ], [ -40.3500549, -10.8073338999999 ], [ -40.338221, -10.8295125 ], [ -40.333242799999901, -10.8134034999999 ], [ -40.3136847, -10.8239695 ], [ -40.2856156, -10.813637 ], [ -40.287821999999899, -10.8357952 ], [ -40.2606641, -10.8533803 ], [ -40.2415722, -10.8470452999999 ], [ -40.2476879, -10.910568199999901 ], [ -40.2111193, -10.9658123999999 ], [ -40.1420750999999, -11.0086752 ], [ -40.0938197, -11.0860193999999 ], [ -40.059354799999902, -11.0955397 ], [ -39.9902403, -11.1625551999999 ], [ -39.9830901999999, -11.1511732 ], [ -39.9529984, -11.1568735999999 ], [ -39.955298399999897, -11.2486547 ], [ -39.861846399999898, -11.3129367999999 ], [ -39.8751897, -11.3171745999999 ], [ -39.8485707, -11.3503378999999 ], [ -39.755761699999901, -11.4261048 ], [ -39.7715087, -11.4663050999999 ], [ -39.819054, -11.5039576999999 ], [ -39.848267, -11.480669299999899 ], [ -39.92388339, -11.4990701099999 ], [ -39.937054095, -11.478302415 ], [ -39.968584103, -11.4908669 ], [ -39.9564758, -11.6479648 ], [ -39.925530389999899, -11.6674657849999 ], [ -39.907292285, -11.7163049 ], [ -39.9984798999999, -11.7798445 ], [ -39.9948137, -11.7999611 ], [ -40.019212, -11.8062467 ], [ -40.0154903, -11.832361299999899 ], [ -40.038567699999902, -11.8320878 ], [ -40.038166299999901, -11.850122699999901 ], [ -40.0588954, -11.839615299999901 ], [ -40.1616425, -11.8491098 ], [ -40.193061199999903, -11.8280134999999 ], [ -40.2968840999999, -11.809805 ], [ -40.3638195, -11.827895 ], [ -40.3702584, -11.7554959 ], [ -40.3534159, -11.6758406 ], [ -40.3738001, -11.6162252 ], [ -40.383218699999901, -11.644087699999901 ], [ -40.4501832, -11.6992875999999 ], [ -40.4335786, -11.7489581 ], [ -40.470609599999896, -11.80253 ], [ -40.490080599999899, -11.8057004 ], [ -40.4844294, -11.824598 ], [ -40.621956, -11.8375748 ], [ -40.5778386, -11.8982568 ], [ -40.6707094, -11.9375684999999 ], [ -40.730306799999902, -11.999828599999899 ], [ -40.771879899999902, -11.9939376 ], [ -40.7951457, -11.9621248 ], [ -40.8328572, -11.9603534 ], [ -40.8776204, -11.973565399999901 ], [ -40.920524, -12.0143719 ], [ -41.024888299999901, -12.002242099999901 ], [ -41.0659095, -11.9294889 ], [ -41.0932733, -11.923688899999901 ], [ -41.1093858999999, -11.9449071999999 ], [ -41.099898799999899, -11.9568131999999 ], [ -41.2233297, -11.9186528 ], [ -41.2563797, -11.9005572 ], [ -41.2493803999999, -11.813955 ], [ -41.3916081, -11.7703824 ], [ -41.425546499999903, -11.9341421 ], [ -41.455656299999902, -11.969639 ], [ -41.4166127, -11.9980168 ], [ -41.3971799, -12.0738651 ], [ -41.36823, -12.082958699999899 ], [ -41.354871199999899, -12.1683977 ], [ -41.4688676, -12.1080497 ], [ -41.453901099999896, -12.0990408 ], [ -41.651734099999899, -12.0136874999999 ], [ -42.0214721, -11.8151981999999 ], [ -42.0060323, -11.8352652 ], [ -42.0271675, -11.8506181999999 ], [ -42.026201, -11.888527199999899 ], [ -41.9973476, -11.9043986999999 ], [ -41.9936779, -11.9744689 ], [ -41.9623706, -11.9690856999999 ], [ -41.943873799999899, -12.0145635 ], [ -41.9787612, -12.0203508 ], [ -41.982631399999903, -12.0444067 ], [ -41.9444862, -12.0762637999999 ], [ -41.9676463, -12.0870315 ], [ -41.9832934, -12.1253596 ], [ -41.9688601, -12.141263599999901 ], [ -41.9664880999999, -12.2218050999999 ], [ -41.98906, -12.2317950999999 ], [ -41.9681123, -12.2658948 ], [ -41.9848722, -12.291447199999901 ], [ -42.0318458, -12.2302824999999 ], [ -42.056266999999899, -12.220498399999901 ], [ -42.039818, -12.2911217 ], [ -42.0889131, -12.2914953 ] ] ] } }
]
}
